{"type":"FeatureCollection","features":[{"type":"Feature","geometry":{"type":"Point","coordinates":[85.3780972,28.2789444]},"properties":{"name":"Miteri Bridge, Rasuwagadhi","status":"Washed out","location":"Rasuwagadhi","district":"Rasuwa","municipality":"Gosaikunda"}},{"type":"Feature","geometry":{"type":"Point","coordinates":[85.3776972,28.271275]},"properties":{"name":"Timure Bridge 1","status":"Washed out","location":"Timure","district":"Rasuwa","municipality":"Gosaikunda"}},{"type":"Feature","geometry":{"type":"Point","coordinates":[85.3582778,28.2399778]},"properties":{"name":"Timure Bridge 2","status":"Washed out","location":"Timure","district":"Rasuwa","municipality":"Gosaikunda"}},{"type":"Feature","geometry":{"type":"Point","coordinates":[85.3618028,28.2267111]},"properties":{"name":"Ghatte Khola","status":"Washed out","location":null,"district":"Rasuwa","municipality":"Gosaikunda"}},{"type":"Feature","geometry":{"type":"Point","coordinates":[85.3432806,28.1828028]},"properties":{"name":"Bhotekoshi Bridge at Chilime","status":"Washed out","location":"Chilime","district":"Rasuwa","municipality":"Gosaikunda"}},{"type":"Feature","geometry":{"type":"Point","coordinates":[85.3422194,28.1816528]},"properties":{"name":"Chilime Bridge, Chilime Khola","status":"Washed out","location":"Chilime","district":"Rasuwa","municipality":"Aamachhodingmo"}},{"type":"Feature","geometry":{"type":"Point","coordinates":[85.3399278,28.1643861]},"properties":{"name":"Hydropower Bailey Bridge at Bhotekoshi, Syaphrubeshi","status":"Washed out","location":"Syafrubesi","district":"Rasuwa","municipality":"Gosaikunda"}},{"type":"Feature","geometry":{"type":"Point","coordinates":[85.3324917,28.1574778]},"properties":{"name":"Syafrubesi Bridge","status":"Washed out","location":"Syafrubesi","district":"Rasuwa","municipality":"Gosaikunda"}},{"type":"Feature","geometry":{"type":"Point","coordinates":[85.3187139,28.1455639]},"properties":{"name":"Sano bharkhu","status":"Intact","location":"63+200","district":"Rasuwa","municipality":"Gosaikunda"}},{"type":"Feature","geometry":{"type":"Point","coordinates":[28.1390111,28.1390111]},"properties":{"name":"Thulo bharkhu","status":"Intact","location":"61+700","district":null,"municipality":null}},{"type":"Feature","geometry":{"type":"Point","coordinates":[85.2994722,28.1272639]},"properties":{"name":"Trisuli Khola Bridge","status":"Intact","location":"60+020","district":"Rasuwa","municipality":"Gosaikunda"}},{"type":"Feature","geometry":{"type":"Point","coordinates":[85.2884222,28.1202833]},"properties":{"name":"Trisuli 216 Audit 1 Bailey Bridge","status":"Washed out","location":"Audit 1, Trisuli 216","district":"Rasuwa","municipality":"Aamachhodingmo"}},{"type":"Feature","geometry":{"type":"Point","coordinates":[85.2810306,28.1129528]},"properties":{"name":"Haku1 Bailey Bridge at Hydropower, Trishuli","status":"Washed out","location":null,"district":"Rasuwa","municipality":"Gosaikunda"}},{"type":"Feature","geometry":{"type":"Point","coordinates":[85.2789639,28.1101556]},"properties":{"name":"Haku khola","status":"Washed out","location":"57+000","district":"Rasuwa","municipality":"Gosaikunda"}},{"type":"Feature","geometry":{"type":"Point","coordinates":[85.2771472,28.1085417]},"properties":{"name":"Bimali Khola","status":"Washed out","location":"56+800","district":"Rasuwa","municipality":"Gosaikunda"}},{"type":"Feature","geometry":{"type":"Point","coordinates":[85.2751389,28.1083667]},"properties":{"name":"Haku2 Bailey Bridge at Hydropower, Trishuli","status":"Washed out","location":null,"district":"Rasuwa","municipality":"Aamachhodingmo"}},{"type":"Feature","geometry":{"type":"Point","coordinates":[85.2519361,28.0915556]},"properties":{"name":"Thade Khola","status":"Intact","location":"52+320","district":"Rasuwa","municipality":"Gosaikunda"}},{"type":"Feature","geometry":{"type":"Point","coordinates":[85.2255556,28.0827778]},"properties":{"name":"Thado Khola (Crossing 0+750","status":"Intact","location":"50+300","district":"Rasuwa","municipality":"Kalika"}},{"type":"Feature","geometry":{"type":"Point","coordinates":[85.2225944,28.0818972]},"properties":{"name":"Crossing 0+700","status":"Washed out","location":"50+260","district":"Rasuwa","municipality":"Kalika"}},{"type":"Feature","geometry":{"type":"Point","coordinates":[85.2128444,28.0759778]},"properties":{"name":"Upper Trishuli Hydrower Bailey Bridge","status":"Washed out","location":null,"district":"Rasuwa","municipality":"Uttargaya"}},{"type":"Feature","geometry":{"type":"Point","coordinates":[85.2075333,28.0718944]},"properties":{"name":"Mailung Bailey Bridge at Mailung Bazaar","status":"Washed out","location":null,"district":"Rasuwa","municipality":"Uttargaya"}},{"type":"Feature","geometry":{"type":"Point","coordinates":[85.2058333,28.0652778]},"properties":{"name":"Trishuli Bridge Mailung Chipleti","status":"Washed out","location":"47+200","district":"Rasuwa","municipality":"Uttargaya"}},{"type":"Feature","geometry":{"type":"Point","coordinates":[85.206325,28.0625778]},"properties":{"name":"Trishuli 3A Dam-3","status":"Washed out","location":"47+040","district":"Rasuwa","municipality":"Uttargaya"}},{"type":"Feature","geometry":{"type":"Point","coordinates":[85.2066861,28.0620528]},"properties":{"name":"Trishuli 3A Dam-2","status":"Washed out","location":"46+990","district":"Rasuwa","municipality":"Uttargaya"}},{"type":"Feature","geometry":{"type":"Point","coordinates":[85.1927778,28.0380556]},"properties":{"name":"Bahubali Jharana Pul","status":"Washed out","location":"43+850","district":"Rasuwa","municipality":"Uttargaya"}},{"type":"Feature","geometry":{"type":"Point","coordinates":[85.1797778,28.0143389]},"properties":{"name":"Sukaure Khola","status":"Intact","location":"40+210","district":"Nuwakot","municipality":"Kispang"}},{"type":"Feature","geometry":{"type":"Point","coordinates":[85.1848889,27.9953417]},"properties":{"name":"Naya Pul Trishuli, Khalte CH 37+810","status":"Washed out","location":"Khalte CH 37+810","district":"Rasuwa","municipality":"Uttargaya"}},{"type":"Feature","geometry":{"type":"Point","coordinates":[85.1858111,27.9743389]},"properties":{"name":"Betrawati Old Bridge","status":"Washed out","location":"Betrawati","district":"Rasuwa","municipality":"Uttargaya"}},{"type":"Feature","geometry":{"type":"Point","coordinates":[85.1858111,27.9743389]},"properties":{"name":"Betrawati New Bridge","status":"Washed out","location":"Betrawati (35+180)","district":"Rasuwa","municipality":"Uttargaya"}},{"type":"Feature","geometry":{"type":"Point","coordinates":[85.1728111,27.9637778]},"properties":{"name":"Trisuli River Bridge Tupche","status":"Washed out","location":"Tupche","district":"Nuwakot","municipality":"Bidur"}},{"type":"Feature","geometry":{"type":"Point","coordinates":[85.1486111,27.9202778]},"properties":{"name":"Dhobi Khola","status":"Intact","location":"27+220","district":"Nuwakot","municipality":"Bidur"}},{"type":"Feature","geometry":{"type":"Point","coordinates":[85.1536111,27.9233333]},"properties":{"name":"Gundre Khola","status":"Intact","location":"27+980","district":"Nuwakot","municipality":"Bidur"}},{"type":"Feature","geometry":{"type":"Point","coordinates":[85.1538889,27.9244444]},"properties":{"name":"Bire Khola","status":"Intact","location":"27+840","district":"Nuwakot","municipality":"Bidur"}},{"type":"Feature","geometry":{"type":"Point","coordinates":[85.1547222,27.9305556]},"properties":{"name":"Gerkhu khola","status":"Intact","location":"29+050","district":"Nuwakot","municipality":"Bidur"}},{"type":"Feature","geometry":{"type":"Point","coordinates":[85.14945,27.9218278]},"properties":{"name":"Trisuli River Bridge ,Trisuli Bazzar(Old)","status":"Washed out","location":"Trisuli Bazzar","district":"Nuwakot","municipality":"Bidur"}},{"type":"Feature","geometry":{"type":"Point","coordinates":[85.1479639,27.9212361]},"properties":{"name":"Trisuli River Bridge ,Trisuli Bazzar(New)","status":"Washed out","location":"Trisuli Bazzar","district":"Nuwakot","municipality":"Bidur"}},{"type":"Feature","geometry":{"type":"Point","coordinates":[85.1385028,27.9094861]},"properties":{"name":"Trisuli River Bridge ,Simchaur","status":"Washed out","location":"Simchaur","district":"Nuwakot","municipality":"Bidur"}},{"type":"Feature","geometry":{"type":"Point","coordinates":[85.1365,27.8923417]},"properties":{"name":"Suspension Bridge at Devighat near Jalshrot tatha Sinchai Division","status":"Washed out","location":"Devighat","district":"Nuwakot","municipality":"Bidur"}},{"type":"Feature","geometry":{"type":"Point","coordinates":[85.116225,27.8703389]},"properties":{"name":"Trisuli River Bridge, Near Devighat, Midhill Highway","status":"Washed out","location":"Near DeviGhat","district":"Nuwakot","municipality":"Bidur"}},{"type":"Feature","geometry":{"type":"Point","coordinates":[85.109075,27.858575]},"properties":{"name":"Tandi Khola Bridge, Devighat (Old)","status":"Washed out","location":"Devighat","district":"Nuwakot","municipality":"Bidur"}},{"type":"Feature","geometry":{"type":"Point","coordinates":[85.109075,27.858575]},"properties":{"name":"Tandi Khola Bridge, Devighat (New)","status":"Washed out","location":"Devighat(CH 16+570)","district":"Nuwakot","municipality":"Bidur"}},{"type":"Feature","geometry":{"type":"Point","coordinates":[85.0987083,27.8593167]},"properties":{"name":"Trisuli River Bridge,Khadgabhanjyang Srikhali Sadak","status":"Washed out","location":"Srikhali","district":"Nuwakot","municipality":"Bidur"}},{"type":"Feature","geometry":{"type":"Point","coordinates":[85.0810639,27.8545667]},"properties":{"name":"Thulo khola","status":"Damaged","location":"13+260","district":"Nuwakot","municipality":"Belkotgadhi"}},{"type":"Feature","geometry":{"type":"Point","coordinates":[85.0619361,27.8594806]},"properties":{"name":"Trishuli River Bridge, Buddhasinghghat","status":"Washed out","location":"Buddhasinghghat","district":"Nuwakot","municipality":"Belkotgadhi"}},{"type":"Feature","geometry":{"type":"Point","coordinates":[85.0411889,27.8560972]},"properties":{"name":"Trishuli River Bridge, Ratmate","status":"Washed out","location":"Ratmate","district":"Nuwakot","municipality":"Tarakeshwor"}},{"type":"Feature","geometry":{"type":"Point","coordinates":[85.0244333,27.8346389]},"properties":{"name":"Jhangar Khola","status":"Intact","location":"5+760","district":"Nuwakot","municipality":"Belkotgadhi"}},{"type":"Feature","geometry":{"type":"Point","coordinates":[85.0223333,27.832525]},"properties":{"name":"Trishuli River Bridge, Keurini, Fosretar","status":"Washed out","location":"Keurini, Fosretar","district":"Dhading","municipality":"Galchhi"}},{"type":"Feature","geometry":{"type":"Point","coordinates":[85.0162111,27.8101111]},"properties":{"name":"Kolpu Khola Bridge (Old)","status":"Damaged","location":null,"district":"Nuwakot","municipality":"Belkotgadhi"}},{"type":"Feature","geometry":{"type":"Point","coordinates":[85.0162111,27.8101111]},"properties":{"name":"Kolpu Khola Bridge (New)","status":"Damaged","location":"2+520","district":"Nuwakot","municipality":"Belkotgadhi"}},{"type":"Feature","geometry":{"type":"Point","coordinates":[85.0027722,27.8026889]},"properties":{"name":"Trishuli River Bridge, BhimDhunga Lami Danda Sadak","status":"Intact","location":"Near Galchhi","district":"Dhading","municipality":"Galchhi"}},{"type":"Feature","geometry":{"type":"Point","coordinates":[85.0008333,27.8002778]},"properties":{"name":"Mahesh khola","status":"Intact","location":"0+520","district":"Dhading","municipality":"Galchhi"}},{"type":"Feature","geometry":{"type":"Point","coordinates":[84.9904889,27.8042833]},"properties":{"name":"Trishuli River Bridge, Baireni Syaltar Sadak","status":"Washed out","location":"Below Galchhi","district":"Dhading","municipality":"Galchhi"}},{"type":"Feature","geometry":{"type":"Point","coordinates":[84.9652639,27.8118583]},"properties":{"name":"Trisuli River Bridge, Mastar Dhading","status":"Damaged","location":"Near Hamlet Resort","district":"Dhading","municipality":"Galchhi"}},{"type":"Feature","geometry":{"type":"Point","coordinates":[84.9242806,27.7979278]},"properties":{"name":"Trisuli River Bridge, JareBagaicha","status":"Washed out","location":"JareBagaicha","district":"Dhading","municipality":"Siddhalek"}},{"type":"Feature","geometry":{"type":"Point","coordinates":[84.9018806,27.8068861]},"properties":{"name":"Trisuli River Bridge, Ghatbesi","status":"Washed out","location":"Ghatbesi","district":"Dhading","municipality":"Siddhalek"}},{"type":"Feature","geometry":{"type":"Point","coordinates":[84.844075,27.8025444]},"properties":{"name":"Trishuli River Bridge, Furke Khola","status":"Washed out","location":"Malelkhu","district":"Dhading","municipality":"Siddhalek"}},{"type":"Feature","geometry":{"type":"Point","coordinates":[84.7770806,27.8105889]},"properties":{"name":"Trishuli River Bridge, Benighat","status":"Intact","location":"Benighat","district":"Gorkha","municipality":"Gandaki"}},{"type":"Feature","geometry":{"type":"Point","coordinates":[84.6620639,27.8446278]},"properties":{"name":"Trisuli River Bridge, Fisling Gorkha","status":"Intact","location":"Fishling","district":"Gorkha","municipality":"Gandaki"}},{"type":"Feature","geometry":{"type":"Point","coordinates":[84.6409583,27.860075]},"properties":{"name":"Hydropower Bailey Bridge Trishuli, Chumlingtar","status":"Intact","location":"Chumlingtar","district":"Gorkha","municipality":"Gandaki"}}]}
