{"type":"FeatureCollection","features":[{"type":"Feature","geometry":{"type":"Polygon","coordinates":[[[84.556395,27.859197],[84.55703,27.859602],[84.558238,27.859624],[84.559223,27.858854],[84.560096,27.858411],[84.566848,27.859024],[84.57148,27.860843],[84.572915,27.861585],[84.574089,27.862712],[84.575664,27.86383],[84.576765,27.864429],[84.577265,27.865555],[84.57706,27.866871],[84.576447,27.867621],[84.576249,27.868651],[84.576137,27.870074],[84.576665,27.87173],[84.579037,27.873632],[84.580938,27.874952],[84.582612,27.875843],[84.584211,27.876523],[84.586512,27.87864],[84.587701,27.879447],[84.589448,27.880405],[84.590985,27.880429],[84.59342,27.879047],[84.59574,27.877193],[84.596595,27.876698],[84.597697,27.876816],[84.599425,27.877417],[84.601052,27.877041],[84.604368,27.875498],[84.605357,27.874483],[84.605505,27.873224],[84.605617,27.873058],[84.606431,27.872613],[84.608414,27.872022],[84.609663,27.87221],[84.612274,27.873054],[84.613608,27.874007],[84.613629,27.876575],[84.614111,27.87813],[84.614983,27.87952],[84.616032,27.879726],[84.617226,27.88048],[84.619197,27.881427],[84.620615,27.881451],[84.623333,27.880982],[84.625876,27.879709],[84.627712,27.878308],[84.627989,27.877446],[84.628293,27.874587],[84.627746,27.873903],[84.627695,27.872961],[84.628159,27.872163],[84.630476,27.870682],[84.634071,27.869851],[84.634851,27.869506],[84.635039,27.868555],[84.634164,27.866056],[84.634144,27.865033],[84.634313,27.863468],[84.635052,27.861279],[84.636247,27.860665],[84.639067,27.860419],[84.641072,27.860778],[84.642746,27.861643],[84.644419,27.86194],[84.647272,27.861602],[84.649373,27.861099],[84.650334,27.860101],[84.650896,27.858947],[84.650422,27.858181],[84.648366,27.855858],[84.647441,27.854966],[84.647283,27.854179],[84.64737,27.853962],[84.648081,27.853435],[84.649218,27.853119],[84.651795,27.852897],[84.655711,27.852934],[84.658283,27.851963],[84.660135,27.850562],[84.661091,27.849144],[84.661557,27.847906],[84.661798,27.84636],[84.662287,27.845229],[84.663132,27.844131],[84.664608,27.840939],[84.663884,27.838147],[84.663815,27.836603],[84.663605,27.835397],[84.663151,27.834427],[84.662268,27.833047],[84.661805,27.831726],[84.661523,27.829803],[84.661833,27.828991],[84.663944,27.82761],[84.666255,27.825808],[84.667696,27.823987],[84.668257,27.82285],[84.668281,27.821761],[84.667718,27.819743],[84.668355,27.818882],[84.670317,27.817636],[84.67337,27.81735],[84.67451,27.816798],[84.677291,27.816031],[84.678535,27.814974],[84.680636,27.814058],[84.683696,27.811391],[84.684718,27.810959],[84.688532,27.810614],[84.691252,27.810193],[84.694109,27.809919],[84.696397,27.808954],[84.701059,27.808282],[84.704292,27.808084],[84.706308,27.807796],[84.708167,27.807256],[84.708861,27.806193],[84.709036,27.804227],[84.708844,27.802841],[84.709586,27.801782],[84.711428,27.800997],[84.714168,27.801062],[84.715455,27.802185],[84.716504,27.803455],[84.71796,27.804434],[84.7187,27.804327],[84.719979,27.803873],[84.721103,27.802454],[84.722825,27.801603],[84.727776,27.800418],[84.729227,27.798298],[84.730011,27.796915],[84.730205,27.796801],[84.731626,27.796665],[84.733925,27.797113],[84.735635,27.798259],[84.736238,27.800139],[84.736523,27.80265],[84.737499,27.804159],[84.739764,27.804971],[84.74475,27.805059],[84.746529,27.806302],[84.748244,27.806045],[84.750291,27.805478],[84.751546,27.806012],[84.754002,27.80751],[84.755474,27.808821],[84.755888,27.810236],[84.75583,27.81361],[84.755912,27.814859],[84.758082,27.816567],[84.760832,27.81852],[84.764787,27.819443],[84.766952,27.818619],[84.768753,27.817216],[84.770191,27.815138],[84.769958,27.813593],[84.770168,27.812193],[84.770995,27.811031],[84.773726,27.809243],[84.775309,27.809573],[84.775939,27.810491],[84.779209,27.813409],[84.781005,27.813836],[84.781163,27.814729],[84.780712,27.816107],[84.781831,27.816507],[84.78377,27.814699],[84.787876,27.815028],[84.789706,27.814867],[84.790767,27.813421],[84.792575,27.813059],[84.794441,27.813649],[84.79574,27.814249],[84.797977,27.814785],[84.800662,27.815186],[84.801955,27.815627],[84.804367,27.817214],[84.806362,27.817853],[84.809306,27.817973],[84.810123,27.817413],[84.810388,27.816525],[84.810764,27.816081],[84.811774,27.815383],[84.813134,27.814742],[84.816462,27.813475],[84.817496,27.812119],[84.817464,27.810687],[84.818282,27.808783],[84.819722,27.80828],[84.821705,27.808414],[84.821924,27.80863],[84.821907,27.809527],[84.821461,27.81166],[84.820754,27.813722],[84.821464,27.815229],[84.822951,27.817994],[84.824808,27.819158],[84.827616,27.819739],[84.829441,27.819111],[84.831781,27.817757],[84.835445,27.814472],[84.835787,27.813475],[84.835624,27.811181],[84.836448,27.808824],[84.837947,27.807444],[84.838684,27.805587],[84.839453,27.80292],[84.839649,27.802756],[84.841694,27.802353],[84.84368,27.802665],[84.846195,27.803694],[84.848565,27.808033],[84.849515,27.809105],[84.851771,27.809045],[84.855858,27.808156],[84.859358,27.807768],[84.860989,27.806978],[84.862732,27.805481],[84.86377,27.80417],[84.864811,27.803089],[84.866088,27.802431],[84.867876,27.802506],[84.870093,27.80294],[84.871857,27.80388],[84.87204,27.804106],[84.87207,27.804453],[84.87081,27.806517],[84.871097,27.807142],[84.874268,27.808474],[84.874939,27.808616],[84.87582,27.808589],[84.877449,27.808943],[84.878999,27.809448],[84.880153,27.809999],[84.882241,27.81027],[84.882996,27.810091],[84.883523,27.809553],[84.884515,27.809456],[84.88519,27.809519],[84.885844,27.810075],[84.886117,27.810138],[84.887409,27.810014],[84.893294,27.808732],[84.89362,27.808483],[84.894524,27.808113],[84.89658,27.808078],[84.897663,27.807456],[84.898764,27.807084],[84.899362,27.80706],[84.900339,27.807298],[84.902851,27.807439],[84.904607,27.808242],[84.906151,27.808265],[84.90785,27.807427],[84.908187,27.806928],[84.908223,27.805815],[84.908082,27.805472],[84.908281,27.805014],[84.908649,27.804843],[84.910407,27.804869],[84.91175,27.805544],[84.912396,27.805593],[84.913442,27.805324],[84.914277,27.804778],[84.91448,27.804511],[84.914912,27.803086],[84.915678,27.801829],[84.917659,27.800846],[84.918778,27.800513],[84.921229,27.798886],[84.923195,27.7982],[84.925311,27.798662],[84.926659,27.799382],[84.927604,27.800139],[84.931553,27.802168],[84.933849,27.804313],[84.936297,27.805532],[84.937112,27.805563],[84.93867,27.805025],[84.939447,27.805212],[84.940196,27.806118],[84.940873,27.807761],[84.94322,27.811523],[84.945183,27.814299],[84.946225,27.81557],[84.947391,27.816668],[84.949174,27.817348],[84.950645,27.817394],[84.953257,27.81652],[84.95442,27.817018],[84.956285,27.818574],[84.956575,27.818702],[84.959063,27.818662],[84.960457,27.818022],[84.962963,27.816511],[84.9645,27.815101],[84.965389,27.812841],[84.965916,27.811981],[84.966272,27.811661],[84.967036,27.81167],[84.96751,27.812131],[84.96868,27.812327],[84.969538,27.811355],[84.970173,27.809693],[84.970094,27.80735],[84.970894,27.806116],[84.972187,27.805496],[84.972606,27.805186],[84.972736,27.80488],[84.972713,27.804217],[84.972978,27.802679],[84.973173,27.802509],[84.9745,27.802079],[84.975957,27.801858],[84.977629,27.801941],[84.978709,27.802213],[84.979329,27.802621],[84.979661,27.802639],[84.980364,27.802929],[84.981927,27.803167],[84.98241,27.803446],[84.983605,27.804484],[84.985782,27.805688],[84.987936,27.806133],[84.989285,27.80587],[84.990136,27.805446],[84.99154,27.804111],[84.991915,27.803881],[84.992307,27.803849],[84.99345,27.804203],[84.996183,27.804299],[84.997805,27.803692],[84.999501,27.802691],[85.001334,27.802492],[85.002824,27.802969],[85.00366,27.804235],[85.006109,27.805583],[85.006777,27.805786],[85.007597,27.805837],[85.010932,27.80707],[85.012118,27.807753],[85.012876,27.807914],[85.013093,27.808205],[85.013158,27.808961],[85.012882,27.809326],[85.012105,27.809421],[85.011874,27.809684],[85.011522,27.81134],[85.012068,27.813182],[85.013396,27.815175],[85.013986,27.816625],[85.014919,27.819798],[85.015372,27.820456],[85.015579,27.821195],[85.015807,27.823479],[85.016084,27.824458],[85.015685,27.825902],[85.015785,27.826893],[85.016937,27.828061],[85.018984,27.829651],[85.020822,27.833506],[85.02074,27.833727],[85.020516,27.833798],[85.019847,27.833495],[85.018131,27.833203],[85.017555,27.833295],[85.017301,27.833703],[85.017455,27.834033],[85.018193,27.834864],[85.018854,27.835172],[85.02041,27.835532],[85.020797,27.835749],[85.021408,27.83635],[85.020873,27.837458],[85.019482,27.839791],[85.018592,27.841724],[85.018294,27.843402],[85.018961,27.844982],[85.020971,27.84673],[85.023857,27.848063],[85.027414,27.849112],[85.028715,27.84998],[85.028813,27.850179],[85.028893,27.852221],[85.029868,27.853841],[85.031855,27.855362],[85.03455,27.855581],[85.041291,27.856808],[85.04384,27.857442],[85.045622,27.857117],[85.046534,27.855964],[85.047412,27.855319],[85.048426,27.855262],[85.0495,27.855591],[85.051129,27.85575],[85.051966,27.856143],[85.054128,27.857665],[85.055638,27.858034],[85.057964,27.859306],[85.059504,27.86041],[85.061023,27.860353],[85.062224,27.86064],[85.065561,27.860671],[85.066127,27.86084],[85.066886,27.861479],[85.067229,27.862424],[85.067388,27.862584],[85.067649,27.862308],[85.068289,27.860859],[85.069233,27.860715],[85.069971,27.860814],[85.071291,27.860175],[85.072323,27.85801],[85.073234,27.856574],[85.072674,27.855347],[85.072684,27.855145],[85.072856,27.854998],[85.073669,27.854855],[85.076121,27.8549],[85.077539,27.855674],[85.078477,27.856425],[85.081597,27.857758],[85.084971,27.857592],[85.087309,27.858185],[85.088241,27.859118],[85.088237,27.860572],[85.088932,27.862301],[85.089789,27.862606],[85.091856,27.863702],[85.092414,27.863773],[85.09298,27.863672],[85.094667,27.862233],[85.0974,27.860844],[85.102744,27.859205],[85.10629,27.85965],[85.109107,27.86357],[85.11162,27.866127],[85.112849,27.868704],[85.114324,27.872596],[85.115251,27.873635],[85.11567,27.873798],[85.116626,27.8737],[85.118043,27.873952],[85.119716,27.874873],[85.121253,27.875914],[85.123524,27.876335],[85.124637,27.878289],[85.126098,27.882503],[85.129755,27.885345],[85.133355,27.887929],[85.135287,27.891299],[85.135078,27.894803],[85.13544,27.897095],[85.136498,27.901341],[85.137213,27.90232],[85.137648,27.904664],[85.137437,27.906694],[85.135706,27.910848],[85.133426,27.914579],[85.133474,27.915654],[85.136018,27.917757],[85.137379,27.918458],[85.137688,27.918993],[85.138308,27.919629],[85.138712,27.919724],[85.139343,27.91931],[85.140424,27.919282],[85.141218,27.919716],[85.142118,27.920348],[85.142641,27.920883],[85.143154,27.921149],[85.145078,27.921399],[85.147127,27.922005],[85.147771,27.922313],[85.148089,27.923046],[85.148103,27.924001],[85.148282,27.924329],[85.148146,27.924846],[85.148757,27.925947],[85.148868,27.927289],[85.14853,27.92786],[85.147702,27.928217],[85.147269,27.928859],[85.147213,27.929322],[85.146893,27.929943],[85.147218,27.930535],[85.147712,27.932307],[85.148437,27.934046],[85.148526,27.934584],[85.148784,27.935024],[85.149485,27.934866],[85.149899,27.934933],[85.150621,27.935483],[85.152823,27.936526],[85.155345,27.938499],[85.156711,27.939717],[85.157098,27.940336],[85.157079,27.94093],[85.157306,27.941397],[85.156957,27.941755],[85.156987,27.941969],[85.157416,27.941988],[85.158307,27.94245],[85.158727,27.943736],[85.159168,27.94424],[85.159271,27.945035],[85.159923,27.946044],[85.159811,27.946316],[85.159242,27.946338],[85.159156,27.946568],[85.159957,27.947005],[85.160853,27.947753],[85.161306,27.948782],[85.161306,27.949148],[85.161603,27.950173],[85.161532,27.950485],[85.161657,27.951003],[85.161742,27.952641],[85.161564,27.953194],[85.161596,27.953748],[85.161251,27.95415],[85.161228,27.954547],[85.161536,27.955126],[85.161677,27.95571],[85.161093,27.956719],[85.161125,27.957018],[85.161331,27.957076],[85.161813,27.956733],[85.162276,27.955747],[85.162453,27.955646],[85.16265,27.955699],[85.163074,27.956117],[85.163074,27.956911],[85.163456,27.957439],[85.165043,27.958124],[85.165492,27.958532],[85.166595,27.958889],[85.167069,27.959199],[85.167269,27.959698],[85.168143,27.961037],[85.168282,27.961636],[85.168087,27.961959],[85.168388,27.962553],[85.168326,27.96351],[85.16842,27.963778],[85.168574,27.963953],[85.169428,27.964143],[85.16964,27.964482],[85.170152,27.964702],[85.170238,27.965084],[85.17073,27.964866],[85.171359,27.96511],[85.171572,27.965686],[85.171419,27.966273],[85.171526,27.966648],[85.172322,27.96701],[85.17302,27.967629],[85.174009,27.96764],[85.174871,27.967799],[85.175391,27.968041],[85.175636,27.968247],[85.175815,27.968641],[85.176887,27.9693],[85.17954,27.970028],[85.180299,27.970483],[85.181036,27.971512],[85.180622,27.972916],[85.181053,27.974732],[85.181008,27.975874],[85.180029,27.978207],[85.179864,27.978862],[85.178991,27.97995],[85.179353,27.986593],[85.180245,27.989005],[85.180861,27.989744],[85.181379,27.992277],[85.182549,27.995498],[85.183449,27.996695],[85.183924,27.997825],[85.183836,27.999086],[85.18319,28.000408],[85.183113,28.00545],[85.182838,28.007008],[85.181886,28.010556],[85.181754,28.01155],[85.181799,28.011978],[85.182276,28.013407],[85.183566,28.014207],[85.184136,28.014791],[85.185491,28.017499],[85.185069,28.018356],[85.18458,28.019027],[85.184062,28.020408],[85.184133,28.022416],[85.184427,28.023324],[85.185253,28.025132],[85.185733,28.025747],[85.188588,28.027553],[85.191323,28.028929],[85.192449,28.030424],[85.192904,28.031718],[85.193075,28.033139],[85.192761,28.034233],[85.19294,28.034829],[85.19267,28.036052],[85.192711,28.037129],[85.192488,28.037778],[85.192503,28.038117],[85.192819,28.038457],[85.192894,28.038778],[85.192791,28.039074],[85.193251,28.039777],[85.193272,28.040304],[85.193778,28.041068],[85.194184,28.041453],[85.194664,28.042159],[85.197123,28.043925],[85.198134,28.044468],[85.198736,28.04523],[85.200343,28.046374],[85.200729,28.046805],[85.201122,28.047726],[85.20191,28.048717],[85.202047,28.049168],[85.202642,28.050078],[85.202903,28.050899],[85.205211,28.05323],[85.205436,28.053616],[85.206005,28.053986],[85.206636,28.05478],[85.20662,28.055144],[85.207321,28.056514],[85.207409,28.057482],[85.207226,28.058002],[85.207366,28.058427],[85.207283,28.05936],[85.206271,28.060763],[85.206266,28.062053],[85.205666,28.062711],[85.206019,28.062931],[85.206074,28.063363],[85.205376,28.064876],[85.205144,28.06618],[85.204765,28.066895],[85.204552,28.067603],[85.204621,28.068455],[85.204857,28.069082],[85.205294,28.069503],[85.20574,28.07045],[85.206351,28.071304],[85.206712,28.073092],[85.207677,28.07369],[85.209345,28.075079],[85.210227,28.07531],[85.211073,28.075694],[85.211182,28.075897],[85.211108,28.076352],[85.211256,28.076559],[85.2121,28.076403],[85.213841,28.07705],[85.214408,28.077781],[85.215568,28.078453],[85.216107,28.07893],[85.216165,28.079532],[85.216699,28.079558],[85.216869,28.079668],[85.217015,28.079944],[85.216984,28.080143],[85.216277,28.080503],[85.216284,28.080708],[85.216894,28.080626],[85.217154,28.08093],[85.217499,28.080858],[85.218025,28.080991],[85.21862,28.08159],[85.218629,28.08195],[85.218998,28.081893],[85.219817,28.082342],[85.22058,28.083288],[85.22072,28.083299],[85.221126,28.082676],[85.222051,28.082727],[85.222822,28.083118],[85.223396,28.083826],[85.22375,28.084007],[85.224005,28.083913],[85.224437,28.08404],[85.225196,28.084638],[85.225832,28.084978],[85.226075,28.085378],[85.226137,28.085931],[85.226502,28.08648],[85.227355,28.086954],[85.227573,28.087405],[85.228118,28.087669],[85.228492,28.087713],[85.228769,28.088028],[85.229043,28.088124],[85.229279,28.08848],[85.229781,28.088813],[85.230457,28.088984],[85.23105,28.089838],[85.231547,28.090191],[85.232118,28.090449],[85.232432,28.090394],[85.233035,28.090631],[85.233139,28.090843],[85.233012,28.091235],[85.233675,28.091509],[85.233972,28.091964],[85.234157,28.09203],[85.235676,28.09187],[85.236761,28.092051],[85.237336,28.091946],[85.238783,28.09223],[85.239432,28.092756],[85.241149,28.092796],[85.241719,28.092933],[85.243644,28.09303],[85.245217,28.092809],[85.246511,28.092947],[85.247553,28.092807],[85.248535,28.092821],[85.249793,28.093245],[85.25162,28.093502],[85.252106,28.093907],[85.253009,28.094158],[85.255397,28.095403],[85.256616,28.095579],[85.257167,28.095769],[85.258751,28.095773],[85.260088,28.096256],[85.260517,28.096783],[85.26162,28.097667],[85.263,28.098321],[85.263318,28.098778],[85.263685,28.10006],[85.264534,28.100911],[85.265226,28.101205],[85.265507,28.101592],[85.266754,28.102746],[85.267722,28.103346],[85.268378,28.103534],[85.268991,28.104134],[85.269969,28.104541],[85.270687,28.105497],[85.270991,28.106231],[85.272166,28.107268],[85.273038,28.107683],[85.273491,28.107673],[85.273767,28.107788],[85.274074,28.108134],[85.274896,28.109566],[85.275564,28.109664],[85.275923,28.109455],[85.276487,28.109826],[85.276559,28.110035],[85.276398,28.110399],[85.276329,28.111215],[85.276983,28.11173],[85.276892,28.112936],[85.277111,28.113659],[85.277405,28.113966],[85.277772,28.114148],[85.278059,28.114057],[85.278191,28.113575],[85.27813,28.113177],[85.278351,28.112977],[85.279021,28.113082],[85.279139,28.113251],[85.279175,28.113693],[85.279287,28.113733],[85.279805,28.113533],[85.280204,28.113556],[85.280439,28.11388],[85.280876,28.114131],[85.280916,28.114593],[85.281366,28.115189],[85.281553,28.115803],[85.281494,28.116095],[85.281725,28.116383],[85.281796,28.116766],[85.282401,28.116631],[85.28259,28.116982],[85.283467,28.117432],[85.283898,28.117909],[85.284715,28.117885],[85.285361,28.118205],[85.285679,28.118513],[85.286717,28.118622],[85.287186,28.118839],[85.287419,28.119078],[85.287453,28.119487],[85.287821,28.120273],[85.28777,28.120656],[85.288164,28.121153],[85.288544,28.121372],[85.289249,28.121424],[85.290314,28.121919],[85.290527,28.122126],[85.290633,28.122698],[85.290924,28.122946],[85.292147,28.123477],[85.294146,28.125407],[85.296263,28.126352],[85.297002,28.12685],[85.297695,28.127831],[85.298139,28.128852],[85.299101,28.129551],[85.299372,28.129871],[85.299671,28.131153],[85.299535,28.131885],[85.300116,28.132733],[85.300997,28.133403],[85.303234,28.136123],[85.304185,28.137885],[85.304536,28.138917],[85.306829,28.141433],[85.307489,28.141851],[85.308418,28.142224],[85.309476,28.143104],[85.30994,28.143262],[85.310928,28.143354],[85.311365,28.143572],[85.311806,28.144423],[85.312647,28.145486],[85.31336,28.146016],[85.317439,28.148095],[85.319112,28.149152],[85.321568,28.150937],[85.323217,28.15124],[85.324364,28.151805],[85.325249,28.152465],[85.325786,28.153101],[85.327995,28.155142],[85.329233,28.15609],[85.330466,28.156763],[85.331951,28.15842],[85.333137,28.159174],[85.334587,28.159825],[85.335205,28.160696],[85.335483,28.161331],[85.336667,28.162604],[85.336922,28.163541],[85.338059,28.164595],[85.339995,28.165151],[85.340599,28.165531],[85.340856,28.165892],[85.340915,28.166623],[85.3415,28.167302],[85.342001,28.172972],[85.341966,28.175705],[85.342103,28.178062],[85.341981,28.178795],[85.341252,28.180622],[85.340557,28.181254],[85.339547,28.181844],[85.339494,28.182259],[85.339928,28.182693],[85.340367,28.182916],[85.341305,28.18266],[85.342067,28.182622],[85.342368,28.182947],[85.342431,28.183267],[85.343066,28.183823],[85.343335,28.184372],[85.343414,28.184814],[85.343804,28.185228],[85.344208,28.186099],[85.344667,28.18651],[85.34508,28.1872],[85.345184,28.187974],[85.345602,28.188751],[85.345508,28.189232],[85.345578,28.189541],[85.346906,28.190408],[85.347265,28.191201],[85.347682,28.191655],[85.34793,28.192511],[85.348786,28.194247],[85.348723,28.194626],[85.349056,28.195268],[85.349234,28.196234],[85.349634,28.197166],[85.349972,28.197424],[85.350577,28.197601],[85.351141,28.198353],[85.351834,28.199945],[85.35171,28.20111],[85.351924,28.201603],[85.35199,28.202845],[85.352838,28.20452],[85.353234,28.204799],[85.353389,28.205165],[85.353782,28.205428],[85.354003,28.206354],[85.353844,28.207056],[85.353822,28.20785],[85.353445,28.20808],[85.353193,28.208472],[85.353126,28.209181],[85.352669,28.209813],[85.353039,28.210079],[85.353297,28.210778],[85.353697,28.211174],[85.353805,28.21147],[85.35409,28.214202],[85.35403,28.215334],[85.354143,28.21634],[85.354018,28.216571],[85.353665,28.216669],[85.353668,28.216923],[85.354262,28.217134],[85.354575,28.217381],[85.355277,28.218357],[85.356136,28.219149],[85.356333,28.219521],[85.357006,28.219911],[85.357257,28.220283],[85.357296,28.221014],[85.357478,28.221451],[85.357775,28.221594],[85.358035,28.222106],[85.359055,28.222724],[85.359229,28.22312],[85.359767,28.223733],[85.359783,28.224038],[85.360052,28.224373],[85.359939,28.224808],[85.360256,28.225761],[85.36017,28.227057],[85.360269,28.228732],[85.360039,28.229021],[85.360021,28.229617],[85.359797,28.230536],[85.359833,28.231026],[85.359386,28.231552],[85.359483,28.23207],[85.359125,28.232924],[85.358817,28.233171],[85.358683,28.233646],[85.357982,28.234519],[85.357936,28.23494],[85.357647,28.235655],[85.357214,28.235833],[85.356912,28.236236],[85.356866,28.23643],[85.357105,28.23733],[85.356792,28.237766],[85.356884,28.237941],[85.357162,28.238061],[85.357242,28.238339],[85.357127,28.23916],[85.356849,28.239799],[85.356911,28.240373],[85.356678,28.242167],[85.358493,28.244443],[85.360444,28.245779],[85.36169,28.246895],[85.362457,28.247333],[85.362824,28.247946],[85.362877,28.248229],[85.363839,28.24931],[85.363696,28.2516],[85.363405,28.251946],[85.362597,28.252259],[85.362378,28.252464],[85.362374,28.252616],[85.362583,28.252726],[85.363412,28.25267],[85.36377,28.252993],[85.363878,28.254289],[85.363658,28.255537],[85.363892,28.255935],[85.364084,28.257102],[85.364308,28.257462],[85.364639,28.257697],[85.364731,28.258097],[85.365222,28.258484],[85.365712,28.258655],[85.366387,28.259084],[85.366671,28.259509],[85.367184,28.259731],[85.36763,28.260198],[85.368694,28.260305],[85.370312,28.260929],[85.370752,28.261493],[85.371983,28.264731],[85.37285,28.265872],[85.374842,28.267077],[85.375487,28.268143],[85.375982,28.270885],[85.376415,28.272311],[85.376246,28.273564],[85.375505,28.275142],[85.375404,28.275876],[85.375549,28.27652],[85.376107,28.277669],[85.376222,28.278442],[85.375578,28.279959],[85.375476,28.280699],[85.379088,28.280452],[85.379843,28.279611],[85.379756,28.278944],[85.378369,28.277426],[85.378296,28.276492],[85.378566,28.275679],[85.378725,28.274559],[85.379465,28.272749],[85.379451,28.271305],[85.378261,28.268295],[85.377454,28.266968],[85.377448,28.266493],[85.378319,28.265654],[85.378073,28.264653],[85.375164,28.263849],[85.374361,28.263151],[85.373604,28.261389],[85.373038,28.260722],[85.370916,28.260029],[85.369387,28.258634],[85.367918,28.25774],[85.367379,28.257051],[85.367088,28.256368],[85.367073,28.255857],[85.36729,28.255222],[85.367034,28.253117],[85.367189,28.252305],[85.367007,28.251381],[85.367027,28.250981],[85.367206,28.25062],[85.366937,28.250468],[85.366795,28.250003],[85.366523,28.24978],[85.365895,28.248348],[85.365514,28.247821],[85.364732,28.247237],[85.363729,28.245962],[85.363368,28.245103],[85.362674,28.24492],[85.362053,28.244423],[85.361149,28.244262],[85.360679,28.243964],[85.359651,28.242836],[85.359571,28.242486],[85.359306,28.242167],[85.359548,28.240666],[85.359384,28.240189],[85.359694,28.239656],[85.359458,28.238765],[85.359832,28.237256],[85.360045,28.236992],[85.360056,28.236234],[85.360301,28.235687],[85.360208,28.23522],[85.360741,28.234428],[85.360911,28.233877],[85.361676,28.232947],[85.361667,28.23202],[85.361508,28.231419],[85.361542,28.230801],[85.36218,28.228401],[85.362167,28.227298],[85.362414,28.22693],[85.363193,28.226907],[85.363618,28.226731],[85.363998,28.226271],[85.36391,28.226116],[85.3638,28.226139],[85.362951,28.226604],[85.362718,28.226524],[85.362367,28.226123],[85.362231,28.224808],[85.362437,28.224128],[85.362269,28.223939],[85.362158,28.223395],[85.362224,28.222723],[85.361915,28.222429],[85.361917,28.222042],[85.362053,28.221752],[85.361038,28.22133],[85.360844,28.220816],[85.360409,28.220928],[85.359419,28.220431],[85.35827,28.219208],[85.358002,28.219079],[85.357711,28.218727],[85.357351,28.218624],[85.357131,28.218184],[85.357057,28.217629],[85.356569,28.217059],[85.355758,28.215721],[85.355839,28.214716],[85.355724,28.214265],[85.355837,28.213398],[85.355601,28.212505],[85.355966,28.212066],[85.355236,28.211353],[85.355202,28.210195],[85.355318,28.208924],[85.355635,28.208327],[85.355776,28.207748],[85.355931,28.20624],[85.355666,28.205242],[85.355158,28.204411],[85.354219,28.203244],[85.354018,28.202475],[85.354087,28.202186],[85.353621,28.201532],[85.353598,28.201263],[85.353737,28.200918],[85.354138,28.200655],[85.354136,28.200497],[85.353536,28.200128],[85.353481,28.199295],[85.353097,28.198549],[85.353098,28.197934],[85.352645,28.197677],[85.351248,28.196119],[85.35106,28.19514],[85.351223,28.194797],[85.351182,28.194602],[85.349713,28.191997],[85.34888,28.190009],[85.348493,28.189605],[85.347807,28.188172],[85.347191,28.187238],[85.346586,28.185694],[85.346136,28.185561],[85.345835,28.185278],[85.345337,28.184398],[85.345145,28.183709],[85.344469,28.182228],[85.343518,28.181194],[85.343492,28.180803],[85.343839,28.179867],[85.343888,28.177424],[85.343433,28.174253],[85.343867,28.170268],[85.343673,28.168203],[85.343885,28.166476],[85.343622,28.165703],[85.343814,28.164194],[85.343708,28.163476],[85.343337,28.162964],[85.341854,28.162866],[85.340866,28.163061],[85.340596,28.162971],[85.34035,28.162603],[85.339964,28.162352],[85.338557,28.160854],[85.337295,28.160018],[85.336844,28.159355],[85.336699,28.158796],[85.336476,28.158509],[85.336049,28.158249],[85.33462,28.157894],[85.334165,28.157677],[85.333324,28.157187],[85.331991,28.155872],[85.330414,28.155287],[85.328314,28.15291],[85.327276,28.152054],[85.32629,28.150858],[85.32558,28.150304],[85.324396,28.149938],[85.323281,28.149766],[85.322052,28.149169],[85.321471,28.148388],[85.320368,28.147774],[85.319127,28.146676],[85.315789,28.144618],[85.313754,28.143654],[85.313042,28.143079],[85.312527,28.142222],[85.311509,28.141044],[85.310428,28.140793],[85.309329,28.140827],[85.307787,28.139695],[85.307187,28.138961],[85.306623,28.137314],[85.306272,28.136995],[85.305578,28.136837],[85.305215,28.136242],[85.304879,28.135368],[85.303777,28.134503],[85.302808,28.131951],[85.30169,28.131375],[85.301444,28.130641],[85.301416,28.129734],[85.301249,28.129372],[85.29975,28.128591],[85.29946,28.12832],[85.299393,28.127763],[85.299596,28.127107],[85.299308,28.126772],[85.298265,28.126218],[85.297655,28.125436],[85.297088,28.125225],[85.295617,28.124375],[85.292556,28.12177],[85.292189,28.121319],[85.291661,28.120989],[85.290801,28.120672],[85.289856,28.119583],[85.289242,28.119355],[85.288989,28.119141],[85.288532,28.118212],[85.286837,28.117413],[85.285143,28.116395],[85.284652,28.115929],[85.28433,28.115227],[85.283717,28.114886],[85.283286,28.114307],[85.282713,28.113088],[85.281768,28.112162],[85.280162,28.111341],[85.279273,28.110302],[85.279119,28.10985],[85.277957,28.109189],[85.277376,28.108154],[85.276504,28.108041],[85.27603,28.10783],[85.274547,28.106629],[85.273788,28.106433],[85.273163,28.106113],[85.272793,28.105635],[85.272612,28.10515],[85.271819,28.104409],[85.271774,28.103817],[85.271135,28.103294],[85.270083,28.102716],[85.268932,28.101464],[85.268425,28.101169],[85.267848,28.101221],[85.267313,28.101513],[85.267087,28.101453],[85.266859,28.100824],[85.266232,28.100318],[85.265437,28.099894],[85.264643,28.099212],[85.264622,28.099003],[85.264845,28.098588],[85.264569,28.098096],[85.264775,28.097543],[85.264641,28.097059],[85.263576,28.097146],[85.262535,28.096621],[85.261883,28.095784],[85.261165,28.095266],[85.258742,28.094309],[85.257187,28.094346],[85.256072,28.093683],[85.252751,28.092438],[85.252069,28.092561],[85.251075,28.092073],[85.249057,28.091732],[85.246811,28.091685],[85.245744,28.091782],[85.24423,28.091387],[85.243064,28.091433],[85.241563,28.091291],[85.240704,28.090882],[85.239609,28.090844],[85.239116,28.090623],[85.238177,28.090455],[85.237058,28.090469],[85.234867,28.089698],[85.233095,28.089298],[85.232306,28.088949],[85.231178,28.087947],[85.230954,28.087532],[85.230231,28.087046],[85.230135,28.086721],[85.230225,28.086188],[85.22995,28.085677],[85.229377,28.085309],[85.229191,28.084578],[85.228692,28.08405],[85.227526,28.083244],[85.227046,28.083224],[85.226841,28.08275],[85.226274,28.082558],[85.22605,28.082205],[85.225728,28.082046],[85.225187,28.08195],[85.224009,28.082099],[85.223262,28.081616],[85.222707,28.081574],[85.222143,28.081369],[85.221894,28.080907],[85.222098,28.080445],[85.221121,28.080249],[85.220645,28.080525],[85.219453,28.079926],[85.218762,28.079249],[85.218638,28.07888],[85.218205,28.078551],[85.218026,28.078194],[85.216939,28.077559],[85.215904,28.07666],[85.215277,28.076361],[85.21434,28.075534],[85.212702,28.074653],[85.21185,28.074346],[85.21109,28.073852],[85.21039,28.073141],[85.210158,28.072262],[85.209875,28.071818],[85.209592,28.071672],[85.209353,28.071191],[85.209071,28.071042],[85.208297,28.070206],[85.208184,28.069484],[85.208042,28.069259],[85.207628,28.069038],[85.206837,28.068217],[85.206771,28.06799],[85.20687,28.067423],[85.206732,28.067048],[85.207154,28.066139],[85.207408,28.065955],[85.207407,28.065681],[85.207606,28.06536],[85.207468,28.064301],[85.207553,28.063942],[85.208159,28.062661],[85.20853,28.061333],[85.208855,28.060646],[85.209398,28.060184],[85.209421,28.060051],[85.209231,28.059894],[85.209144,28.059631],[85.209099,28.059211],[85.209276,28.05827],[85.208976,28.057571],[85.209048,28.057333],[85.209638,28.05677],[85.209691,28.05656],[85.209405,28.05615],[85.20937,28.055006],[85.209093,28.054423],[85.209183,28.054076],[85.208686,28.053899],[85.208483,28.053524],[85.208726,28.052957],[85.20847,28.052801],[85.207685,28.05269],[85.207388,28.052176],[85.206552,28.051324],[85.205153,28.050293],[85.205129,28.049848],[85.204473,28.049627],[85.20382,28.048764],[85.203618,28.048007],[85.203113,28.046987],[85.202784,28.046803],[85.202462,28.046245],[85.202114,28.046075],[85.201645,28.045533],[85.201362,28.04494],[85.201053,28.044776],[85.200666,28.044309],[85.200637,28.044108],[85.200769,28.043906],[85.200668,28.043728],[85.199831,28.043845],[85.19806,28.042639],[85.197533,28.042443],[85.196862,28.041943],[85.195797,28.040875],[85.195203,28.039985],[85.194953,28.039047],[85.195151,28.038255],[85.195039,28.037398],[85.195233,28.036696],[85.195137,28.035117],[85.195338,28.034488],[85.195221,28.03414],[85.195458,28.033687],[85.195566,28.032658],[85.195403,28.032482],[85.195013,28.030991],[85.193708,28.028234],[85.192837,28.027277],[85.190821,28.025754],[85.187301,28.024257],[85.186274,28.022955],[85.186248,28.022087],[85.186919,28.021242],[85.187658,28.020588],[85.18834,28.019689],[85.188427,28.018099],[85.188267,28.016889],[85.186411,28.015104],[85.185699,28.014268],[85.185263,28.01317],[85.185194,28.010111],[85.185497,28.007952],[85.186033,28.006472],[85.185759,28.005351],[85.186626,28.00249],[85.187367,28.000481],[85.18718,27.997875],[85.186686,27.996709],[85.185437,27.99582],[85.184793,27.994414],[85.184714,27.993778],[85.184785,27.993024],[85.184626,27.99182],[85.183771,27.989744],[85.182379,27.984326],[85.181863,27.983681],[85.181597,27.982126],[85.181707,27.98121],[85.182215,27.980322],[85.182567,27.979082],[85.18303,27.97824],[85.183986,27.975359],[85.184596,27.975154],[85.186339,27.975364],[85.188021,27.976601],[85.188724,27.976876],[85.189703,27.97676],[85.190414,27.97618],[85.190603,27.975426],[85.190574,27.974628],[85.190197,27.97399],[85.18966,27.973496],[85.188964,27.973264],[85.187093,27.97298],[85.186379,27.972405],[85.186285,27.972218],[85.186294,27.971375],[85.186441,27.970974],[85.186211,27.970572],[85.185525,27.96984],[85.184277,27.968839],[85.181783,27.968171],[85.180317,27.96746],[85.178752,27.966376],[85.177192,27.964657],[85.176663,27.964248],[85.175419,27.963894],[85.173666,27.963079],[85.172615,27.962065],[85.170569,27.959403],[85.17043,27.958755],[85.1693,27.95854],[85.169214,27.958196],[85.169309,27.957707],[85.169072,27.957417],[85.168499,27.95719],[85.168311,27.956793],[85.16671,27.956025],[85.165673,27.955778],[85.16508,27.955506],[85.164843,27.954869],[85.164125,27.953827],[85.16383,27.953184],[85.164116,27.952153],[85.164098,27.95081],[85.164371,27.94851],[85.164106,27.948091],[85.163897,27.947421],[85.16316,27.946542],[85.162745,27.945857],[85.162618,27.944935],[85.162232,27.944151],[85.161782,27.942711],[85.160996,27.941259],[85.160496,27.939534],[85.159856,27.939025],[85.159709,27.938785],[85.158093,27.937666],[85.157827,27.937122],[85.157788,27.93653],[85.157423,27.935183],[85.157126,27.934529],[85.155637,27.932661],[85.155411,27.932236],[85.154435,27.931457],[85.154473,27.931182],[85.154894,27.930825],[85.154525,27.930563],[85.153681,27.930327],[85.152272,27.930255],[85.152,27.930297],[85.151381,27.930718],[85.151177,27.930744],[85.150924,27.930619],[85.150752,27.930338],[85.150896,27.928823],[85.15162,27.92756],[85.151885,27.926802],[85.152209,27.926425],[85.152193,27.926109],[85.151864,27.92531],[85.151839,27.923441],[85.151658,27.922358],[85.150858,27.921712],[85.150138,27.921506],[85.148973,27.920608],[85.148199,27.920671],[85.147731,27.920421],[85.147562,27.920119],[85.147102,27.919735],[85.143624,27.91837],[85.143061,27.917916],[85.13998,27.916185],[85.138979,27.91537],[85.137844,27.914816],[85.137532,27.913304],[85.138455,27.911425],[85.141153,27.909098],[85.142264,27.905625],[85.141678,27.902413],[85.13959,27.900598],[85.138642,27.899189],[85.138493,27.898372],[85.138379,27.896324],[85.139218,27.894714],[85.139405,27.894109],[85.139405,27.893406],[85.139158,27.892673],[85.138626,27.891773],[85.138477,27.889502],[85.138353,27.889014],[85.134063,27.885675],[85.132381,27.883828],[85.130208,27.881958],[85.1284,27.878259],[85.128235,27.875943],[85.127123,27.874627],[85.125465,27.873797],[85.122864,27.872269],[85.119754,27.870953],[85.11876,27.870153],[85.116775,27.86933],[85.115811,27.868613],[85.11262,27.863092],[85.112456,27.862202],[85.111401,27.860043],[85.111504,27.859365],[85.112989,27.858516],[85.113334,27.857608],[85.112798,27.857274],[85.112551,27.85724],[85.110664,27.858041],[85.109966,27.857952],[85.107859,27.858293],[85.106942,27.858315],[85.105692,27.85804],[85.102483,27.857628],[85.099906,27.857907],[85.093747,27.859427],[85.09131,27.858079],[85.08987,27.856069],[85.088221,27.854692],[85.087111,27.854071],[85.085944,27.85401],[85.083762,27.855283],[85.083064,27.855405],[85.080539,27.85471],[85.079292,27.853945],[85.077628,27.852308],[85.076471,27.851769],[85.075618,27.851761],[85.073958,27.852111],[85.071678,27.852914],[85.069198,27.853617],[85.063319,27.855936],[85.060972,27.857268],[85.059959,27.857441],[85.058943,27.857132],[85.058072,27.856555],[85.057099,27.855362],[85.055191,27.853516],[85.052018,27.852561],[85.050378,27.85232],[85.046903,27.851163],[85.043956,27.851092],[85.042972,27.851732],[85.042426,27.853021],[85.041947,27.853344],[85.04093,27.853145],[85.03994,27.852748],[85.039171,27.852835],[85.03779,27.853311],[85.03407,27.853127],[85.033136,27.85282],[85.032801,27.852493],[85.032637,27.851995],[85.032403,27.850318],[85.031011,27.8489],[85.029649,27.848064],[85.028305,27.847538],[85.022845,27.844426],[85.022276,27.84403],[85.021627,27.843154],[85.021566,27.842391],[85.021819,27.841946],[85.022527,27.841615],[85.023415,27.840851],[85.023749,27.838654],[85.023879,27.836345],[85.023821,27.834468],[85.023545,27.833336],[85.02226,27.831158],[85.022051,27.82968],[85.021848,27.829086],[85.020982,27.827671],[85.019648,27.825877],[85.019267,27.824072],[85.01876,27.822397],[85.018683,27.82149],[85.018511,27.820976],[85.017987,27.820136],[85.017757,27.819351],[85.01709,27.818698],[85.016454,27.818332],[85.015896,27.817664],[85.014971,27.815347],[85.013798,27.813761],[85.013325,27.811924],[85.013431,27.811122],[85.013692,27.810644],[85.014171,27.810337],[85.015973,27.810428],[85.016277,27.810167],[85.016233,27.809848],[85.01603,27.809573],[85.015368,27.809341],[85.015202,27.809181],[85.01512,27.80812],[85.014559,27.807204],[85.013376,27.806541],[85.01145,27.805883],[85.009357,27.804916],[85.006891,27.804339],[85.005693,27.803911],[85.003133,27.801303],[85.000972,27.800491],[84.998941,27.800955],[84.997613,27.80159],[84.996503,27.802303],[84.995007,27.802887],[84.994139,27.802767],[84.992194,27.802203],[84.990924,27.802447],[84.988924,27.804283],[84.988074,27.804673],[84.987073,27.804508],[84.984374,27.803603],[84.983431,27.802754],[84.981792,27.801811],[84.980518,27.801827],[84.977599,27.800665],[84.976026,27.800536],[84.973182,27.801258],[84.972122,27.801649],[84.971427,27.802437],[84.971188,27.80324],[84.971205,27.803552],[84.971501,27.804027],[84.971442,27.804358],[84.971087,27.804854],[84.970711,27.80503],[84.969407,27.806174],[84.968738,27.8085],[84.968229,27.809631],[84.967658,27.810062],[84.965726,27.810061],[84.964789,27.810683],[84.964371,27.81111],[84.964243,27.811996],[84.96295,27.813905],[84.962556,27.815101],[84.961803,27.81603],[84.959802,27.817135],[84.958744,27.817418],[84.956918,27.817018],[84.954222,27.8154],[84.952561,27.814796],[84.951474,27.814964],[84.949722,27.815878],[84.948617,27.815562],[84.947782,27.814832],[84.946135,27.812383],[84.945643,27.811965],[84.944119,27.811373],[84.943833,27.811093],[84.943198,27.808923],[84.941779,27.807073],[84.940787,27.805465],[84.939775,27.804323],[84.938798,27.804211],[84.937283,27.804508],[84.936652,27.804484],[84.936034,27.804275],[84.933454,27.802622],[84.931576,27.80112],[84.930826,27.80089],[84.929979,27.800052],[84.927834,27.79865],[84.925254,27.797524],[84.92413,27.797192],[84.922867,27.797044],[84.920342,27.797848],[84.918132,27.799621],[84.917167,27.800193],[84.916479,27.800368],[84.914395,27.801729],[84.913294,27.803714],[84.912982,27.804079],[84.912516,27.80435],[84.911955,27.804502],[84.908577,27.803349],[84.906894,27.803356],[84.906628,27.803636],[84.906516,27.803952],[84.906737,27.805055],[84.906478,27.805669],[84.906141,27.806128],[84.904816,27.807019],[84.904156,27.807035],[84.901864,27.80592],[84.899961,27.805725],[84.893326,27.807685],[84.892004,27.807657],[84.891147,27.807868],[84.890482,27.808389],[84.889332,27.808888],[84.888298,27.809031],[84.886919,27.808928],[84.885237,27.807845],[84.884724,27.80774],[84.882533,27.80826],[84.881746,27.809235],[84.881083,27.809361],[84.879561,27.808427],[84.878641,27.808142],[84.877575,27.807953],[84.875054,27.807821],[84.87278,27.806772],[84.872209,27.806348],[84.872236,27.805873],[84.87273,27.805317],[84.873767,27.804536],[84.873749,27.804305],[84.872858,27.803265],[84.871146,27.802177],[84.870054,27.801696],[84.868812,27.801361],[84.867556,27.801397],[84.865356,27.801046],[84.863917,27.801575],[84.862569,27.803459],[84.862078,27.80398],[84.861929,27.804427],[84.861005,27.805705],[84.859831,27.80643],[84.85834,27.806898],[84.856192,27.807027],[84.853081,27.807832],[84.85088,27.808148],[84.85019,27.80813],[84.849325,27.807686],[84.84921,27.80648],[84.848769,27.804949],[84.848096,27.804228],[84.84685,27.803309],[84.844081,27.801824],[84.842711,27.801499],[84.83984,27.801311],[84.839011,27.801596],[84.837106,27.804215],[84.835167,27.805937],[84.834953,27.805853],[84.833567,27.804384],[84.832396,27.802911],[84.830817,27.804032],[84.831755,27.805479],[84.833131,27.806878],[84.833111,27.8072],[84.827272,27.80942],[84.82531,27.811197],[84.824754,27.811863],[84.825043,27.813491],[84.831208,27.814065],[84.832357,27.813034],[84.833455,27.812424],[84.833634,27.81253],[84.833685,27.812731],[84.833265,27.813914],[84.831769,27.815878],[84.829829,27.817362],[84.826458,27.818036],[84.824165,27.817024],[84.822556,27.812988],[84.823164,27.810826],[84.823528,27.808644],[84.821844,27.806947],[84.818267,27.806497],[84.816692,27.808084],[84.816122,27.809626],[84.814921,27.811481],[84.813217,27.813055],[84.808076,27.816391],[84.806389,27.815851],[84.804014,27.81427],[84.802657,27.814424],[84.799014,27.813895],[84.795721,27.812705],[84.791242,27.811798],[84.78946,27.812969],[84.78745,27.813976],[84.785508,27.813198],[84.782427,27.812905],[84.779636,27.811548],[84.777664,27.809523],[84.77602,27.808202],[84.773287,27.807919],[84.770585,27.808735],[84.768724,27.810471],[84.768036,27.812609],[84.768441,27.814851],[84.766768,27.816686],[84.763731,27.817543],[84.761195,27.816838],[84.75961,27.814759],[84.757442,27.811601],[84.756992,27.80904],[84.754954,27.806529],[84.753423,27.805019],[84.751023,27.80378],[84.749601,27.802902],[84.748722,27.802128],[84.748684,27.801863],[84.749325,27.800606],[84.744249,27.799425],[84.742079,27.800921],[84.73904,27.799436],[84.739171,27.800918],[84.740533,27.802563],[84.742021,27.802921],[84.742528,27.802942],[84.742715,27.803176],[84.74257,27.803438],[84.742065,27.803542],[84.739298,27.803488],[84.738657,27.803072],[84.738001,27.801907],[84.738271,27.800044],[84.737786,27.798312],[84.735765,27.796622],[84.732958,27.795258],[84.729874,27.79515],[84.727436,27.797459],[84.726077,27.79923],[84.724937,27.799823],[84.721107,27.800869],[84.72017,27.801851],[84.718981,27.802338],[84.717999,27.802141],[84.716531,27.801173],[84.713775,27.799698],[84.710394,27.799594],[84.707508,27.801551],[84.705995,27.804095],[84.704594,27.80475],[84.702787,27.806189],[84.699665,27.806518],[84.696767,27.806589],[84.695499,27.806065],[84.695402,27.805885],[84.695429,27.805523],[84.69415,27.80571],[84.694239,27.806278],[84.695204,27.807244],[84.695251,27.807499],[84.693069,27.808774],[84.691437,27.808619],[84.688872,27.809291],[84.686156,27.809485],[84.683791,27.809894],[84.679374,27.813092],[84.677961,27.813829],[84.676037,27.815149],[84.672633,27.81617],[84.670665,27.816428],[84.668603,27.815451],[84.668667,27.817221],[84.6667,27.818105],[84.666273,27.819261],[84.666407,27.820845],[84.666953,27.8219],[84.666419,27.823036],[84.665653,27.824165],[84.665445,27.824187],[84.66473,27.823891],[84.664386,27.824273],[84.664673,27.824769],[84.664386,27.825203],[84.661502,27.827298],[84.659948,27.829432],[84.660182,27.831048],[84.660882,27.832725],[84.661924,27.834301],[84.662948,27.836527],[84.663193,27.840672],[84.661553,27.842292],[84.661045,27.844561],[84.660936,27.846439],[84.660427,27.848551],[84.659208,27.85016],[84.657075,27.85148],[84.653512,27.852044],[84.649769,27.852099],[84.647336,27.852833],[84.646408,27.853529],[84.646102,27.85529],[84.647937,27.85728],[84.648826,27.858839],[84.648724,27.859091],[84.647461,27.859885],[84.646256,27.860017],[84.641832,27.859324],[84.640167,27.859295],[84.635099,27.859733],[84.632793,27.862033],[84.632492,27.863508],[84.632678,27.867335],[84.632642,27.868594],[84.628623,27.87016],[84.626438,27.872027],[84.625383,27.874157],[84.624063,27.876041],[84.622841,27.876798],[84.620542,27.877536],[84.619358,27.87906],[84.618292,27.878736],[84.617577,27.877962],[84.615831,27.876581],[84.615428,27.875011],[84.615131,27.873086],[84.613813,27.872171],[84.611343,27.871289],[84.607455,27.870924],[84.605295,27.871423],[84.604334,27.871998],[84.603505,27.874225],[84.602474,27.875073],[84.600748,27.875803],[84.598291,27.875743],[84.596869,27.875479],[84.595046,27.875925],[84.593717,27.876797],[84.592363,27.878241],[84.590624,27.879234],[84.589525,27.879044],[84.58731,27.877923],[84.584808,27.875928],[84.580984,27.873613],[84.57784,27.871332],[84.577125,27.87011],[84.5774,27.868281],[84.578009,27.866087],[84.577649,27.864147],[84.575121,27.862101],[84.571687,27.860244],[84.567384,27.858309],[84.560131,27.857612],[84.559053,27.856666],[84.557653,27.854002],[84.557886,27.850632],[84.558837,27.847702],[84.557643,27.848441],[84.556887,27.849961],[84.556412,27.851248],[84.556439,27.853648],[84.556736,27.85485],[84.557009,27.856952],[84.557784,27.857796],[84.557904,27.858616],[84.557722,27.85888],[84.556395,27.859197]],[[84.744669,27.803436],[84.744585,27.803201],[84.744731,27.802997],[84.745518,27.80298],[84.7488,27.803546],[84.749112,27.804007],[84.748878,27.804249],[84.746999,27.804308],[84.745129,27.803831],[84.744669,27.803436]]]},"properties":{"name":"Flood Extent, Observed 27 August 2026, GeoJSON","area_sq_km":31.7}}]}
