{"type":"FeatureCollection","features":[{"type":"Feature","geometry":{"type":"Point","coordinates":[85.2065984,28.0733647]},"properties":{"name":"Helipad","district":"Rasuwa","municipality":"Uttargaya"}},{"type":"Feature","geometry":{"type":"Point","coordinates":[84.5897437,27.8785206]},"properties":{"name":"Kurintar Heliport","district":"Gorkha","municipality":"Shahid Lakhan"}},{"type":"Feature","geometry":{"type":"Point","coordinates":[85.341783,28.167065122222223]},"properties":{"name":"Helipad","district":"Rasuwa","municipality":"Gosaikunda"}},{"type":"Feature","geometry":{"type":"Point","coordinates":[85.04595947142856,27.856348157142858]},"properties":{"name":"Helipad","district":"Nuwakot","municipality":"Belkotgadhi"}},{"type":"Feature","geometry":{"type":"Point","coordinates":[85.17174025384617,27.963992023076926]},"properties":{"name":"Helipad","district":"Nuwakot","municipality":"Bidur"}},{"type":"Feature","geometry":{"type":"Point","coordinates":[85.0597052625,27.8589102125]},"properties":{"name":"Helipad","district":"Nuwakot","municipality":"Tarakeshwor"}},{"type":"Feature","geometry":{"type":"Point","coordinates":[85.031808025,27.8511888875]},"properties":{"name":"Helipad","district":"Nuwakot","municipality":"Belkotgadhi"}},{"type":"Feature","geometry":{"type":"Point","coordinates":[85.02728368,27.84872334]},"properties":{"name":"Helipad","district":"Nuwakot","municipality":"Belkotgadhi"}},{"type":"Feature","geometry":{"type":"Point","coordinates":[85.01951967142858,27.836905257142856]},"properties":{"name":"Helipad","district":"Nuwakot","municipality":"Belkotgadhi"}},{"type":"Feature","geometry":{"type":"Point","coordinates":[85.04115951428571,27.85169827142857]},"properties":{"name":"Helipad","district":"Nuwakot","municipality":"Belkotgadhi"}},{"type":"Feature","geometry":{"type":"Point","coordinates":[85.02256653333333,27.839786916666668]},"properties":{"name":"Helipad","district":"Nuwakot","municipality":"Belkotgadhi"}},{"type":"Feature","geometry":{"type":"Point","coordinates":[85.0214457125,27.829760262500002]},"properties":{"name":"Helipad","district":"Nuwakot","municipality":"Belkotgadhi"}},{"type":"Feature","geometry":{"type":"Point","coordinates":[85.37702343999999,28.280842760000002]},"properties":{"name":"Helipad","district":"Rasuwa","municipality":"Gosaikunda"}},{"type":"Feature","geometry":{"type":"Point","coordinates":[85.06743477,27.861245860000004]},"properties":{"name":"Helipad","district":"Nuwakot","municipality":"Bidur"}},{"type":"Feature","geometry":{"type":"Point","coordinates":[85.35918835999999,28.240645920000002]},"properties":{"name":"Helipad","district":"Rasuwa","municipality":"Gosaikunda"}},{"type":"Feature","geometry":{"type":"Point","coordinates":[85.13318282941177,27.887031500000003]},"properties":{"name":"Helipad","district":"Nuwakot","municipality":"Bidur"}},{"type":"Feature","geometry":{"type":"Point","coordinates":[84.99458698823528,27.801697029411766]},"properties":{"name":"Helipad","district":"Dhading","municipality":"Galchhi"}},{"type":"Feature","geometry":{"type":"Point","coordinates":[85.00653054666667,27.80587689]},"properties":{"name":"Helipad","district":"Dhading","municipality":"Galchhi"}}]}
