{"type":"FeatureCollection","features":[{"type":"Feature","geometry":{"type":"Point","coordinates":[85.15,27.92]},"properties":{"place_name":"Bhainse","district":"Nuwakot","municipality":"Bidur","damaged_bld":451,"total_bld":725,"damage_pct":62.2,"population":2225.687,"acute_need_score":1003785,"damaged_bridges_5km":8,"nearest_damaged_bridge_km":0.1,"nearest_helipad_km":4,"likely_isolated":true,"priority_score":5018925}},{"type":"Feature","geometry":{"type":"Point","coordinates":[85.11,27.86]},"properties":{"place_name":"Devighat","district":"Nuwakot","municipality":"Bidur","damaged_bld":335,"total_bld":643,"damage_pct":52.1,"population":1755.55,"acute_need_score":588109,"damaged_bridges_5km":7,"nearest_damaged_bridge_km":0.2,"nearest_helipad_km":3.8,"likely_isolated":true,"priority_score":2646491}},{"type":"Feature","geometry":{"type":"Point","coordinates":[85.18,27.98]},"properties":{"place_name":"Naubisephat","district":"Nuwakot","municipality":"Kispang","damaged_bld":356,"total_bld":761,"damage_pct":46.8,"population":1453.765,"acute_need_score":517540,"damaged_bridges_5km":5,"nearest_damaged_bridge_km":0.8,"nearest_helipad_km":2,"likely_isolated":true,"priority_score":1811390}},{"type":"Feature","geometry":{"type":"Point","coordinates":[85.14,27.89]},"properties":{"place_name":"Devighat","district":"Nuwakot","municipality":"Bidur","damaged_bld":109,"total_bld":1080,"damage_pct":10.1,"population":2446.274,"acute_need_score":266644,"damaged_bridges_5km":11,"nearest_damaged_bridge_km":0.4,"nearest_helipad_km":0.7,"likely_isolated":true,"priority_score":1733186}},{"type":"Feature","geometry":{"type":"Point","coordinates":[85.14,27.91]},"properties":{"place_name":"Devighat","district":"Nuwakot","municipality":"Bidur","damaged_bld":82,"total_bld":891,"damage_pct":9.2,"population":2974.879,"acute_need_score":243940,"damaged_bridges_5km":9,"nearest_damaged_bridge_km":0.2,"nearest_helipad_km":2.6,"likely_isolated":true,"priority_score":1341670}},{"type":"Feature","geometry":{"type":"Point","coordinates":[85.14,27.92]},"properties":{"place_name":"Bhainse","district":"Nuwakot","municipality":"Bidur","damaged_bld":108,"total_bld":803,"damage_pct":13.4,"population":2439.01,"acute_need_score":263413,"damaged_bridges_5km":8,"nearest_damaged_bridge_km":0.8,"nearest_helipad_km":3.7,"likely_isolated":true,"priority_score":1317065}},{"type":"Feature","geometry":{"type":"Point","coordinates":[85.15,27.93]},"properties":{"place_name":"Bhainse","district":"Nuwakot","municipality":"Bidur","damaged_bld":106,"total_bld":636,"damage_pct":16.7,"population":1532.912,"acute_need_score":162489,"damaged_bridges_5km":9,"nearest_damaged_bridge_km":0.5,"nearest_helipad_km":4.3,"likely_isolated":true,"priority_score":893690}},{"type":"Feature","geometry":{"type":"Point","coordinates":[85.14,27.900000000000002]},"properties":{"place_name":"Devighat","district":"Nuwakot","municipality":"Bidur","damaged_bld":52,"total_bld":804,"damage_pct":6.5,"population":3048.476,"acute_need_score":158521,"damaged_bridges_5km":9,"nearest_damaged_bridge_km":0.9,"nearest_helipad_km":1.6,"likely_isolated":true,"priority_score":871866}},{"type":"Feature","geometry":{"type":"Point","coordinates":[85.17,27.96]},"properties":{"place_name":"Bhainse","district":"Nuwakot","municipality":"Bidur","damaged_bld":204,"total_bld":398,"damage_pct":51.3,"population":588.476,"acute_need_score":120049,"damaged_bridges_5km":10,"nearest_damaged_bridge_km":0.5,"nearest_helipad_km":0.5,"likely_isolated":true,"priority_score":720294}},{"type":"Feature","geometry":{"type":"Point","coordinates":[85.18,27.97]},"properties":{"place_name":"Betrawati","district":"Nuwakot","municipality":"Bidur","damaged_bld":280,"total_bld":536,"damage_pct":52.2,"population":646.544,"acute_need_score":181032,"damaged_bridges_5km":5,"nearest_damaged_bridge_km":0.7,"nearest_helipad_km":1,"likely_isolated":true,"priority_score":633612}},{"type":"Feature","geometry":{"type":"Point","coordinates":[85.16,27.95]},"properties":{"place_name":"Bhainse","district":"Nuwakot","municipality":"Bidur","damaged_bld":110,"total_bld":554,"damage_pct":19.9,"population":943.073,"acute_need_score":103738,"damaged_bridges_5km":10,"nearest_damaged_bridge_km":2,"nearest_helipad_km":1.9,"likely_isolated":true,"priority_score":622428}},{"type":"Feature","geometry":{"type":"Point","coordinates":[85.34,28.16]},"properties":{"place_name":"Shyaphru Bensi","district":"Rasuwa","municipality":"Gosaikunda","damaged_bld":240,"total_bld":354,"damage_pct":67.8,"population":573.589,"acute_need_score":137661,"damaged_bridges_5km":5,"nearest_damaged_bridge_km":0.5,"nearest_helipad_km":0.8,"likely_isolated":true,"priority_score":481814}},{"type":"Feature","geometry":{"type":"Point","coordinates":[85.16,27.94]},"properties":{"place_name":"Bhainse","district":"Nuwakot","municipality":"Bidur","damaged_bld":60,"total_bld":560,"damage_pct":10.7,"population":1328.424,"acute_need_score":79705,"damaged_bridges_5km":10,"nearest_damaged_bridge_km":1.2,"nearest_helipad_km":2.9,"likely_isolated":true,"priority_score":478230}},{"type":"Feature","geometry":{"type":"Point","coordinates":[85.08,27.85]},"properties":{"place_name":"Devighat","district":"Nuwakot","municipality":"Bidur","damaged_bld":60,"total_bld":318,"damage_pct":18.9,"population":1132.39,"acute_need_score":67943,"damaged_bridges_5km":7,"nearest_damaged_bridge_km":0.5,"nearest_helipad_km":1.8,"likely_isolated":true,"priority_score":305744}},{"type":"Feature","geometry":{"type":"Point","coordinates":[85.17,27.97]},"properties":{"place_name":"Bhainse","district":"Nuwakot","municipality":"Bidur","damaged_bld":118,"total_bld":488,"damage_pct":24.2,"population":686.989,"acute_need_score":81065,"damaged_bridges_5km":5,"nearest_damaged_bridge_km":0.7,"nearest_helipad_km":0.7,"likely_isolated":true,"priority_score":283728}},{"type":"Feature","geometry":{"type":"Point","coordinates":[85.18,27.990000000000002]},"properties":{"place_name":"Naubisephat","district":"Nuwakot","municipality":"Kispang","damaged_bld":184,"total_bld":302,"damage_pct":60.9,"population":434.277,"acute_need_score":79907,"damaged_bridges_5km":5,"nearest_damaged_bridge_km":0.8,"nearest_helipad_km":3,"likely_isolated":true,"priority_score":279675}},{"type":"Feature","geometry":{"type":"Point","coordinates":[85.19,27.97]},"properties":{"place_name":"Betrawati","district":"Nuwakot","municipality":"Bidur","damaged_bld":162,"total_bld":236,"damage_pct":68.6,"population":478.652,"acute_need_score":77542,"damaged_bridges_5km":4,"nearest_damaged_bridge_km":0.6,"nearest_helipad_km":1.9,"likely_isolated":true,"priority_score":232626}},{"type":"Feature","geometry":{"type":"Point","coordinates":[85.09,27.86]},"properties":{"place_name":"Devighat","district":"Nuwakot","municipality":"Bidur","damaged_bld":67,"total_bld":366,"damage_pct":18.3,"population":649.918,"acute_need_score":43545,"damaged_bridges_5km":7,"nearest_damaged_bridge_km":0.9,"nearest_helipad_km":2.2,"likely_isolated":true,"priority_score":195953}},{"type":"Feature","geometry":{"type":"Point","coordinates":[85.07000000000001,27.86]},"properties":{"place_name":"Devighat","district":"Nuwakot","municipality":"Bidur","damaged_bld":69,"total_bld":257,"damage_pct":26.8,"population":548.541,"acute_need_score":37849,"damaged_bridges_5km":7,"nearest_damaged_bridge_km":0.8,"nearest_helipad_km":0.3,"likely_isolated":true,"priority_score":170321}},{"type":"Feature","geometry":{"type":"Point","coordinates":[85.37,28.25]},"properties":{"place_name":"Rasuwa Gadhi","district":"Rasuwa","municipality":"Gosaikunda","damaged_bld":188,"total_bld":195,"damage_pct":96.4,"population":259.388,"acute_need_score":48765,"damaged_bridges_5km":4,"nearest_damaged_bridge_km":1.6,"nearest_helipad_km":1.5,"likely_isolated":true,"priority_score":146295}},{"type":"Feature","geometry":{"type":"Point","coordinates":[85.12,27.87]},"properties":{"place_name":"Devighat","district":"Nuwakot","municipality":"Bidur","damaged_bld":42,"total_bld":356,"damage_pct":11.8,"population":695.889,"acute_need_score":29227,"damaged_bridges_5km":7,"nearest_damaged_bridge_km":0.4,"nearest_helipad_km":2.3,"likely_isolated":true,"priority_score":131522}},{"type":"Feature","geometry":{"type":"Point","coordinates":[85.04,27.85]},"properties":{"place_name":"Pimaltar","district":"Nuwakot","municipality":"Belkotgadhi","damaged_bld":35,"total_bld":467,"damage_pct":7.5,"population":1016.584,"acute_need_score":35580,"damaged_bridges_5km":5,"nearest_damaged_bridge_km":0.7,"nearest_helipad_km":0.2,"likely_isolated":true,"priority_score":124530}},{"type":"Feature","geometry":{"type":"Point","coordinates":[85.18,28.0]},"properties":{"place_name":"Naubisephat","district":"Nuwakot","municipality":"Kispang","damaged_bld":65,"total_bld":474,"damage_pct":13.7,"population":465.598,"acute_need_score":30264,"damaged_bridges_5km":6,"nearest_damaged_bridge_km":0.7,"nearest_helipad_km":4.1,"likely_isolated":true,"priority_score":121056}},{"type":"Feature","geometry":{"type":"Point","coordinates":[85.21000000000001,28.07]},"properties":{"place_name":"Mailung","district":"Rasuwa","municipality":"Uttargaya","damaged_bld":51,"total_bld":63,"damage_pct":81,"population":395.571,"acute_need_score":20174,"damaged_bridges_5km":9,"nearest_damaged_bridge_km":0.3,"nearest_helipad_km":0.5,"likely_isolated":true,"priority_score":110957}},{"type":"Feature","geometry":{"type":"Point","coordinates":[85.10000000000001,27.86]},"properties":{"place_name":"Devighat","district":"Nuwakot","municipality":"Bidur","damaged_bld":32,"total_bld":363,"damage_pct":8.8,"population":821.765,"acute_need_score":26296,"damaged_bridges_5km":6,"nearest_damaged_bridge_km":0.1,"nearest_helipad_km":3.2,"likely_isolated":true,"priority_score":105184}},{"type":"Feature","geometry":{"type":"Point","coordinates":[85.13,27.88]},"properties":{"place_name":"Devighat","district":"Nuwakot","municipality":"Bidur","damaged_bld":49,"total_bld":116,"damage_pct":42.2,"population":423.807,"acute_need_score":20767,"damaged_bridges_5km":8,"nearest_damaged_bridge_km":1.5,"nearest_helipad_km":0.8,"likely_isolated":true,"priority_score":103835}},{"type":"Feature","geometry":{"type":"Point","coordinates":[85.15,27.94]},"properties":{"place_name":"Bhainse","district":"Nuwakot","municipality":"Bidur","damaged_bld":19,"total_bld":441,"damage_pct":4.3,"population":1051.83,"acute_need_score":19985,"damaged_bridges_5km":8,"nearest_damaged_bridge_km":1.1,"nearest_helipad_km":3.4,"likely_isolated":true,"priority_score":99925}},{"type":"Feature","geometry":{"type":"Point","coordinates":[85.02,27.830000000000002]},"properties":{"place_name":"ChiuriBhanjyang","district":"Nuwakot","municipality":"Belkotgadhi","damaged_bld":36,"total_bld":294,"damage_pct":12.2,"population":540.733,"acute_need_score":19466,"damaged_bridges_5km":8,"nearest_damaged_bridge_km":0.4,"nearest_helipad_km":0.1,"likely_isolated":true,"priority_score":97330}},{"type":"Feature","geometry":{"type":"Point","coordinates":[85.07000000000001,27.85]},"properties":{"place_name":"Devighat","district":"Nuwakot","municipality":"Bidur","damaged_bld":41,"total_bld":262,"damage_pct":15.6,"population":521.122,"acute_need_score":21366,"damaged_bridges_5km":7,"nearest_damaged_bridge_km":1.2,"nearest_helipad_km":1.3,"likely_isolated":true,"priority_score":96147}},{"type":"Feature","geometry":{"type":"Point","coordinates":[85.19,28.03]},"properties":{"place_name":"Simle","district":"Rasuwa","municipality":"Uttargaya","damaged_bld":70,"total_bld":172,"damage_pct":40.7,"population":304.463,"acute_need_score":21312,"damaged_bridges_5km":7,"nearest_damaged_bridge_km":0.9,"nearest_helipad_km":5.1,"likely_isolated":true,"priority_score":95904}},{"type":"Feature","geometry":{"type":"Point","coordinates":[85.38,28.28]},"properties":{"place_name":"Resuo","district":"Rasuwa","municipality":"Gosaikunda","damaged_bld":103,"total_bld":104,"damage_pct":99,"population":368.221,"acute_need_score":37927,"damaged_bridges_5km":3,"nearest_damaged_bridge_km":0.2,"nearest_helipad_km":0.3,"likely_isolated":true,"priority_score":94818}},{"type":"Feature","geometry":{"type":"Point","coordinates":[85.38,28.27]},"properties":{"place_name":"Rasuwa Gadhi","district":"Rasuwa","municipality":"Gosaikunda","damaged_bld":183,"total_bld":183,"damage_pct":100,"population":182.818,"acute_need_score":33456,"damaged_bridges_5km":3,"nearest_damaged_bridge_km":0.3,"nearest_helipad_km":1.2,"likely_isolated":true,"priority_score":83640}},{"type":"Feature","geometry":{"type":"Point","coordinates":[85.06,27.86]},"properties":{"place_name":"Pimaltar","district":"Nuwakot","municipality":"Belkotgadhi","damaged_bld":29,"total_bld":216,"damage_pct":13.4,"population":462.158,"acute_need_score":13403,"damaged_bridges_5km":8,"nearest_damaged_bridge_km":0.2,"nearest_helipad_km":0.1,"likely_isolated":true,"priority_score":67015}},{"type":"Feature","geometry":{"type":"Point","coordinates":[85.37,28.26]},"properties":{"place_name":"Rasuwa Gadhi","district":"Rasuwa","municipality":"Gosaikunda","damaged_bld":142,"total_bld":175,"damage_pct":81.1,"population":156.219,"acute_need_score":22183,"damaged_bridges_5km":4,"nearest_damaged_bridge_km":1.5,"nearest_helipad_km":2.4,"likely_isolated":true,"priority_score":66549}},{"type":"Feature","geometry":{"type":"Point","coordinates":[85.03,27.85]},"properties":{"place_name":"Pimaltar","district":"Nuwakot","municipality":"Belkotgadhi","damaged_bld":32,"total_bld":227,"damage_pct":14.1,"population":518.928,"acute_need_score":16606,"damaged_bridges_5km":6,"nearest_damaged_bridge_km":1.3,"nearest_helipad_km":0.2,"likely_isolated":true,"priority_score":66424}},{"type":"Feature","geometry":{"type":"Point","coordinates":[85.08,27.86]},"properties":{"place_name":"Devighat","district":"Nuwakot","municipality":"Bidur","damaged_bld":16,"total_bld":464,"damage_pct":3.4,"population":768.045,"acute_need_score":12289,"damaged_bridges_5km":7,"nearest_damaged_bridge_km":0.6,"nearest_helipad_km":1.2,"likely_isolated":true,"priority_score":55301}},{"type":"Feature","geometry":{"type":"Point","coordinates":[85.34,28.17]},"properties":{"place_name":"Shyaphru Bensi","district":"Rasuwa","municipality":"Gosaikunda","damaged_bld":63,"total_bld":100,"damage_pct":63,"population":237.617,"acute_need_score":14970,"damaged_bridges_5km":5,"nearest_damaged_bridge_km":0.6,"nearest_helipad_km":0.4,"likely_isolated":true,"priority_score":52395}},{"type":"Feature","geometry":{"type":"Point","coordinates":[85.13,27.89]},"properties":{"place_name":"Devighat","district":"Nuwakot","municipality":"Bidur","damaged_bld":19,"total_bld":220,"damage_pct":8.6,"population":420.652,"acute_need_score":7992,"damaged_bridges_5km":11,"nearest_damaged_bridge_km":0.7,"nearest_helipad_km":0.5,"likely_isolated":true,"priority_score":51948}},{"type":"Feature","geometry":{"type":"Point","coordinates":[85.18,28.01]},"properties":{"place_name":"Simle","district":"Rasuwa","municipality":"Uttargaya","damaged_bld":58,"total_bld":122,"damage_pct":47.5,"population":220.568,"acute_need_score":12793,"damaged_bridges_5km":5,"nearest_damaged_bridge_km":0.5,"nearest_helipad_km":5.2,"likely_isolated":true,"priority_score":44776}},{"type":"Feature","geometry":{"type":"Point","coordinates":[85.19,27.98]},"properties":{"place_name":"Betrawati","district":"Nuwakot","municipality":"Bidur","damaged_bld":15,"total_bld":579,"damage_pct":2.6,"population":830.813,"acute_need_score":12462,"damaged_bridges_5km":5,"nearest_damaged_bridge_km":0.8,"nearest_helipad_km":2.5,"likely_isolated":true,"priority_score":43617}},{"type":"Feature","geometry":{"type":"Point","coordinates":[85.02,27.84]},"properties":{"place_name":"Pimaltar","district":"Nuwakot","municipality":"Belkotgadhi","damaged_bld":13,"total_bld":283,"damage_pct":4.6,"population":609.108,"acute_need_score":7918,"damaged_bridges_5km":9,"nearest_damaged_bridge_km":0.7,"nearest_helipad_km":0.3,"likely_isolated":true,"priority_score":43549}},{"type":"Feature","geometry":{"type":"Point","coordinates":[85.21000000000001,28.060000000000002]},"properties":{"place_name":"Mailung","district":"Rasuwa","municipality":"Uttargaya","damaged_bld":76,"total_bld":95,"damage_pct":80,"population":112.404,"acute_need_score":8543,"damaged_bridges_5km":8,"nearest_damaged_bridge_km":0.4,"nearest_helipad_km":1.5,"likely_isolated":true,"priority_score":42715}},{"type":"Feature","geometry":{"type":"Point","coordinates":[85.18,28.02]},"properties":{"place_name":"Simle","district":"Rasuwa","municipality":"Uttargaya","damaged_bld":17,"total_bld":421,"damage_pct":4,"population":850.35,"acute_need_score":14456,"damaged_bridges_5km":3,"nearest_damaged_bridge_km":0.6,"nearest_helipad_km":6.3,"likely_isolated":true,"priority_score":36140}},{"type":"Feature","geometry":{"type":"Point","coordinates":[85.12,27.88]},"properties":{"place_name":"Devighat","district":"Nuwakot","municipality":"Bidur","damaged_bld":11,"total_bld":322,"damage_pct":3.4,"population":723.785,"acute_need_score":7962,"damaged_bridges_5km":7,"nearest_damaged_bridge_km":1.1,"nearest_helipad_km":1.5,"likely_isolated":true,"priority_score":35829}},{"type":"Feature","geometry":{"type":"Point","coordinates":[85.11,27.87]},"properties":{"place_name":"Devighat","district":"Nuwakot","municipality":"Bidur","damaged_bld":13,"total_bld":253,"damage_pct":5.1,"population":484.779,"acute_need_score":6302,"damaged_bridges_5km":7,"nearest_damaged_bridge_km":0.6,"nearest_helipad_km":3,"likely_isolated":true,"priority_score":28359}},{"type":"Feature","geometry":{"type":"Point","coordinates":[85.04,27.86]},"properties":{"place_name":"Pimaltar","district":"Nuwakot","municipality":"Belkotgadhi","damaged_bld":36,"total_bld":73,"damage_pct":49.3,"population":183.246,"acute_need_score":6597,"damaged_bridges_5km":5,"nearest_damaged_bridge_km":0.4,"nearest_helipad_km":0.7,"likely_isolated":true,"priority_score":23090}},{"type":"Feature","geometry":{"type":"Point","coordinates":[85.21000000000001,28.05]},"properties":{"place_name":"Mailung","district":"Rasuwa","municipality":"Uttargaya","damaged_bld":38,"total_bld":90,"damage_pct":42.2,"population":104.646,"acute_need_score":3977,"damaged_bridges_5km":9,"nearest_damaged_bridge_km":1.4,"nearest_helipad_km":2.6,"likely_isolated":true,"priority_score":21874}},{"type":"Feature","geometry":{"type":"Point","coordinates":[85.09,27.85]},"properties":{"place_name":"Devighat","district":"Nuwakot","municipality":"Bidur","damaged_bld":12,"total_bld":326,"damage_pct":3.7,"population":344.238,"acute_need_score":4131,"damaged_bridges_5km":7,"nearest_damaged_bridge_km":1,"nearest_helipad_km":2.5,"likely_isolated":true,"priority_score":18590}},{"type":"Feature","geometry":{"type":"Point","coordinates":[85.06,27.85]},"properties":{"place_name":"Keurini","district":"Nuwakot","municipality":"Belkotgadhi","damaged_bld":3,"total_bld":449,"damage_pct":0.7,"population":1131.105,"acute_need_score":3393,"damaged_bridges_5km":8,"nearest_damaged_bridge_km":1.1,"nearest_helipad_km":1,"likely_isolated":true,"priority_score":16965}},{"type":"Feature","geometry":{"type":"Point","coordinates":[85.34,28.18]},"properties":{"place_name":"Shyaphru Bensi","district":"Rasuwa","municipality":"Gosaikunda","damaged_bld":34,"total_bld":37,"damage_pct":91.9,"population":139.738,"acute_need_score":4751,"damaged_bridges_5km":5,"nearest_damaged_bridge_km":0.3,"nearest_helipad_km":1.4,"likely_isolated":true,"priority_score":16629}},{"type":"Feature","geometry":{"type":"Point","coordinates":[85.05,27.85]},"properties":{"place_name":"Pimaltar","district":"Nuwakot","municipality":"Belkotgadhi","damaged_bld":7,"total_bld":277,"damage_pct":2.5,"population":451.642,"acute_need_score":3161,"damaged_bridges_5km":6,"nearest_damaged_bridge_km":1.1,"nearest_helipad_km":0.8,"likely_isolated":true,"priority_score":12644}},{"type":"Feature","geometry":{"type":"Point","coordinates":[85.36,28.240000000000002]},"properties":{"place_name":"Rasuwa Gadhi","district":"Rasuwa","municipality":"Gosaikunda","damaged_bld":85,"total_bld":89,"damage_pct":95.5,"population":48.033,"acute_need_score":4083,"damaged_bridges_5km":4,"nearest_damaged_bridge_km":0.2,"nearest_helipad_km":0.1,"likely_isolated":true,"priority_score":12249}},{"type":"Feature","geometry":{"type":"Point","coordinates":[85.19,28.04]},"properties":{"place_name":"Simle","district":"Rasuwa","municipality":"Uttargaya","damaged_bld":4,"total_bld":201,"damage_pct":2,"population":497.118,"acute_need_score":1988,"damaged_bridges_5km":8,"nearest_damaged_bridge_km":0.3,"nearest_helipad_km":4,"likely_isolated":true,"priority_score":9940}},{"type":"Feature","geometry":{"type":"Point","coordinates":[85.02,27.85]},"properties":{"place_name":"Pimaltar","district":"Nuwakot","municipality":"Belkotgadhi","damaged_bld":4,"total_bld":294,"damage_pct":1.4,"population":597.725,"acute_need_score":2391,"damaged_bridges_5km":6,"nearest_damaged_bridge_km":1.8,"nearest_helipad_km":0.7,"likely_isolated":true,"priority_score":9564}},{"type":"Feature","geometry":{"type":"Point","coordinates":[85.17,27.98]},"properties":{"place_name":"Naubisephat","district":"Nuwakot","municipality":"Kispang","damaged_bld":4,"total_bld":302,"damage_pct":1.3,"population":428.69,"acute_need_score":1715,"damaged_bridges_5km":5,"nearest_damaged_bridge_km":1.7,"nearest_helipad_km":1.8,"likely_isolated":true,"priority_score":6003}},{"type":"Feature","geometry":{"type":"Point","coordinates":[85.05,27.86]},"properties":{"place_name":"Pimaltar","district":"Nuwakot","municipality":"Belkotgadhi","damaged_bld":4,"total_bld":273,"damage_pct":1.5,"population":351.993,"acute_need_score":1408,"damaged_bridges_5km":6,"nearest_damaged_bridge_km":1,"nearest_helipad_km":0.6,"likely_isolated":true,"priority_score":5632}},{"type":"Feature","geometry":{"type":"Point","coordinates":[85.02,27.82]},"properties":{"place_name":"KapraGhari","district":"Nuwakot","municipality":"Belkotgadhi","damaged_bld":4,"total_bld":181,"damage_pct":2.2,"population":252.927,"acute_need_score":1012,"damaged_bridges_5km":8,"nearest_damaged_bridge_km":1.2,"nearest_helipad_km":1.1,"likely_isolated":true,"priority_score":5060}},{"type":"Feature","geometry":{"type":"Point","coordinates":[85.36,28.25]},"properties":{"place_name":"Rasuwa Gadhi","district":"Rasuwa","municipality":"Gosaikunda","damaged_bld":25,"total_bld":25,"damage_pct":100,"population":64.276,"acute_need_score":1607,"damaged_bridges_5km":4,"nearest_damaged_bridge_km":1.1,"nearest_helipad_km":1,"likely_isolated":true,"priority_score":4821}},{"type":"Feature","geometry":{"type":"Point","coordinates":[85.16,27.96]},"properties":{"place_name":"Bhainse","district":"Nuwakot","municipality":"Bidur","damaged_bld":5,"total_bld":218,"damage_pct":2.3,"population":152.466,"acute_need_score":762,"damaged_bridges_5km":10,"nearest_damaged_bridge_km":1.3,"nearest_helipad_km":1.2,"likely_isolated":true,"priority_score":4572}},{"type":"Feature","geometry":{"type":"Point","coordinates":[85.13,27.91]},"properties":{"place_name":"Devighat","district":"Nuwakot","municipality":"Bidur","damaged_bld":2,"total_bld":275,"damage_pct":0.7,"population":399.534,"acute_need_score":799,"damaged_bridges_5km":9,"nearest_damaged_bridge_km":0.8,"nearest_helipad_km":2.6,"likely_isolated":true,"priority_score":4395}},{"type":"Feature","geometry":{"type":"Point","coordinates":[85.36,28.21]},"properties":{"place_name":"Shyaphru Bensi","district":"Rasuwa","municipality":"Gosaikunda","damaged_bld":9,"total_bld":184,"damage_pct":4.9,"population":105.631,"acute_need_score":951,"damaged_bridges_5km":4,"nearest_damaged_bridge_km":1.9,"nearest_helipad_km":3.4,"likely_isolated":true,"priority_score":2853}},{"type":"Feature","geometry":{"type":"Point","coordinates":[85.33,28.16]},"properties":{"place_name":"Shyaphru Bensi","district":"Rasuwa","municipality":"Gosaikunda","damaged_bld":2,"total_bld":162,"damage_pct":1.2,"population":315.819,"acute_need_score":632,"damaged_bridges_5km":6,"nearest_damaged_bridge_km":0.4,"nearest_helipad_km":1.4,"likely_isolated":true,"priority_score":2528}},{"type":"Feature","geometry":{"type":"Point","coordinates":[85.19,28.0]},"properties":{"place_name":"Naubisephat","district":"Nuwakot","municipality":"Kispang","damaged_bld":26,"total_bld":46,"damage_pct":56.5,"population":19.741,"acute_need_score":513,"damaged_bridges_5km":6,"nearest_damaged_bridge_km":0.7,"nearest_helipad_km":4.4,"likely_isolated":true,"priority_score":2052}},{"type":"Feature","geometry":{"type":"Point","coordinates":[85.2,28.05]},"properties":{"place_name":"Simle","district":"Rasuwa","municipality":"Uttargaya","damaged_bld":8,"total_bld":45,"damage_pct":17.8,"population":37.668,"acute_need_score":301,"damaged_bridges_5km":9,"nearest_damaged_bridge_km":1.5,"nearest_helipad_km":2.7,"likely_isolated":true,"priority_score":1656}},{"type":"Feature","geometry":{"type":"Point","coordinates":[85.19,28.01]},"properties":{"place_name":"Simle","district":"Rasuwa","municipality":"Uttargaya","damaged_bld":1,"total_bld":488,"damage_pct":0.2,"population":387.76,"acute_need_score":388,"damaged_bridges_5km":5,"nearest_damaged_bridge_km":1.1,"nearest_helipad_km":5.4,"likely_isolated":true,"priority_score":1358}},{"type":"Feature","geometry":{"type":"Point","coordinates":[85.28,28.11]},"properties":{"place_name":"Mailung","district":"Rasuwa","municipality":"Uttargaya","damaged_bld":1,"total_bld":13,"damage_pct":7.7,"population":245.973,"acute_need_score":246,"damaged_bridges_5km":7,"nearest_damaged_bridge_km":0.1,"nearest_helipad_km":8.3,"likely_isolated":true,"priority_score":1107}},{"type":"Feature","geometry":{"type":"Point","coordinates":[85.32000000000001,28.150000000000002]},"properties":{"place_name":"Shyaphru Bensi","district":"Rasuwa","municipality":"Gosaikunda","damaged_bld":3,"total_bld":55,"damage_pct":5.5,"population":49.11,"acute_need_score":147,"damaged_bridges_5km":7,"nearest_damaged_bridge_km":0.5,"nearest_helipad_km":2.9,"likely_isolated":true,"priority_score":662}},{"type":"Feature","geometry":{"type":"Point","coordinates":[85.36,28.23]},"properties":{"place_name":"Rasuwa Gadhi","district":"Rasuwa","municipality":"Gosaikunda","damaged_bld":9,"total_bld":22,"damage_pct":40.9,"population":20.707,"acute_need_score":186,"damaged_bridges_5km":3,"nearest_damaged_bridge_km":0.4,"nearest_helipad_km":1.2,"likely_isolated":true,"priority_score":465}},{"type":"Feature","geometry":{"type":"Point","coordinates":[85.35000000000001,28.2]},"properties":{"place_name":"Shyaphru Bensi","district":"Rasuwa","municipality":"Gosaikunda","damaged_bld":7,"total_bld":36,"damage_pct":19.4,"population":15.652,"acute_need_score":110,"damaged_bridges_5km":5,"nearest_damaged_bridge_km":2,"nearest_helipad_km":3.7,"likely_isolated":true,"priority_score":385}},{"type":"Feature","geometry":{"type":"Point","coordinates":[85.19,28.02]},"properties":{"place_name":"Simle","district":"Rasuwa","municipality":"Uttargaya","damaged_bld":3,"total_bld":8,"damage_pct":37.5,"population":17.4,"acute_need_score":52,"damaged_bridges_5km":5,"nearest_damaged_bridge_km":1.2,"nearest_helipad_km":6.1,"likely_isolated":true,"priority_score":182}},{"type":"Feature","geometry":{"type":"Point","coordinates":[85.38,28.26]},"properties":{"place_name":"Rasuwa Gadhi","district":"Rasuwa","municipality":"Gosaikunda","damaged_bld":8,"total_bld":8,"damage_pct":100,"population":7.383,"acute_need_score":59,"damaged_bridges_5km":4,"nearest_damaged_bridge_km":1.3,"nearest_helipad_km":2.3,"likely_isolated":true,"priority_score":177}},{"type":"Feature","geometry":{"type":"Point","coordinates":[85.37,28.27]},"properties":{"place_name":"Rasuwa Gadhi","district":"Rasuwa","municipality":"Gosaikunda","damaged_bld":2,"total_bld":3,"damage_pct":66.7,"population":15.15,"acute_need_score":30,"damaged_bridges_5km":4,"nearest_damaged_bridge_km":0.8,"nearest_helipad_km":1.4,"likely_isolated":true,"priority_score":90}},{"type":"Feature","geometry":{"type":"Point","coordinates":[85.23,28.080000000000002]},"properties":{"place_name":"Mailung","district":"Rasuwa","municipality":"Uttargaya","damaged_bld":10,"total_bld":11,"damage_pct":90.9,"population":1.576,"acute_need_score":16,"damaged_bridges_5km":8,"nearest_damaged_bridge_km":0.5,"nearest_helipad_km":2.4,"likely_isolated":true,"priority_score":80}},{"type":"Feature","geometry":{"type":"Point","coordinates":[85.36,28.26]},"properties":{"place_name":"Rasuwa Gadhi","district":"Rasuwa","municipality":"Gosaikunda","damaged_bld":5,"total_bld":6,"damage_pct":83.3,"population":2.939,"acute_need_score":15,"damaged_bridges_5km":4,"nearest_damaged_bridge_km":2.1,"nearest_helipad_km":2.1,"likely_isolated":true,"priority_score":45}},{"type":"Feature","geometry":{"type":"Point","coordinates":[85.46000000000001,28.34]},"properties":{"place_name":"Resuo","district":"Rasuwa","municipality":"Gosaikunda","damaged_bld":5,"total_bld":11,"damage_pct":45.5,"population":8.474,"acute_need_score":42,"damaged_bridges_5km":0,"nearest_damaged_bridge_km":null,"nearest_helipad_km":10.4,"likely_isolated":false,"priority_score":42}},{"type":"Feature","geometry":{"type":"Point","coordinates":[85.23,28.09]},"properties":{"place_name":"Mailung","district":"Rasuwa","municipality":"Uttargaya","damaged_bld":1,"total_bld":6,"damage_pct":16.7,"population":4.44,"acute_need_score":4,"damaged_bridges_5km":9,"nearest_damaged_bridge_km":0.9,"nearest_helipad_km":2.9,"likely_isolated":true,"priority_score":22}},{"type":"Feature","geometry":{"type":"Point","coordinates":[85.26,28.1]},"properties":{"place_name":"Mailung","district":"Rasuwa","municipality":"Uttargaya","damaged_bld":1,"total_bld":5,"damage_pct":20,"population":3.392,"acute_need_score":3,"damaged_bridges_5km":9,"nearest_damaged_bridge_km":1.2,"nearest_helipad_km":6,"likely_isolated":true,"priority_score":17}},{"type":"Feature","geometry":{"type":"Point","coordinates":[85.35000000000001,28.16]},"properties":{"place_name":"Shyaphru Bensi","district":"Rasuwa","municipality":"Gosaikunda","damaged_bld":3,"total_bld":7,"damage_pct":42.9,"population":0.977,"acute_need_score":3,"damaged_bridges_5km":5,"nearest_damaged_bridge_km":1.1,"nearest_helipad_km":1.1,"likely_isolated":true,"priority_score":11}},{"type":"Feature","geometry":{"type":"Point","coordinates":[85.21000000000001,28.080000000000002]},"properties":{"place_name":"Mailung","district":"Rasuwa","municipality":"Uttargaya","damaged_bld":1,"total_bld":1,"damage_pct":100,"population":0.761,"acute_need_score":1,"damaged_bridges_5km":9,"nearest_damaged_bridge_km":0.5,"nearest_helipad_km":0.8,"likely_isolated":true,"priority_score":6}},{"type":"Feature","geometry":{"type":"Point","coordinates":[85.36,28.22]},"properties":{"place_name":"Shyaphru Bensi","district":"Rasuwa","municipality":"Gosaikunda","damaged_bld":4,"total_bld":5,"damage_pct":80,"population":0.227,"acute_need_score":1,"damaged_bridges_5km":4,"nearest_damaged_bridge_km":0.8,"nearest_helipad_km":2.3,"likely_isolated":true,"priority_score":3}},{"type":"Feature","geometry":{"type":"Point","coordinates":[85.48,28.34]},"properties":{"place_name":"Resuo","district":"Rasuwa","municipality":"Gosaikunda","damaged_bld":2,"total_bld":3,"damage_pct":66.7,"population":1.052,"acute_need_score":2,"damaged_bridges_5km":0,"nearest_damaged_bridge_km":null,"nearest_helipad_km":12,"likely_isolated":false,"priority_score":2}},{"type":"Feature","geometry":{"type":"Point","coordinates":[85.22,28.080000000000002]},"properties":{"place_name":"Mailung","district":"Rasuwa","municipality":"Uttargaya","damaged_bld":1,"total_bld":1,"damage_pct":100,"population":0,"acute_need_score":0,"damaged_bridges_5km":8,"nearest_damaged_bridge_km":0.3,"nearest_helipad_km":1.5,"likely_isolated":true,"priority_score":0}},{"type":"Feature","geometry":{"type":"Point","coordinates":[85.35000000000001,28.21]},"properties":{"place_name":"Shyaphru Bensi","district":"Rasuwa","municipality":"Gosaikunda","damaged_bld":3,"total_bld":5,"damage_pct":60,"population":0,"acute_need_score":0,"damaged_bridges_5km":4,"nearest_damaged_bridge_km":2.2,"nearest_helipad_km":3.5,"likely_isolated":true,"priority_score":0}},{"type":"Feature","geometry":{"type":"Point","coordinates":[85.37,28.29]},"properties":{"place_name":"Resuo","district":"Rasuwa","municipality":"Gosaikunda","damaged_bld":4,"total_bld":4,"damage_pct":100,"population":0,"acute_need_score":0,"damaged_bridges_5km":2,"nearest_damaged_bridge_km":1.5,"nearest_helipad_km":1.2,"likely_isolated":true,"priority_score":0}},{"type":"Feature","geometry":{"type":"Point","coordinates":[85.4,28.3]},"properties":{"place_name":"Resuo","district":"Rasuwa","municipality":"Gosaikunda","damaged_bld":1,"total_bld":1,"damage_pct":100,"population":0,"acute_need_score":0,"damaged_bridges_5km":2,"nearest_damaged_bridge_km":3.2,"nearest_helipad_km":3.1,"likely_isolated":true,"priority_score":0}},{"type":"Feature","geometry":{"type":"Point","coordinates":[85.39,28.29]},"properties":{"place_name":"Resuo","district":"Rasuwa","municipality":"Gosaikunda","damaged_bld":2,"total_bld":2,"damage_pct":100,"population":0,"acute_need_score":0,"damaged_bridges_5km":2,"nearest_damaged_bridge_km":1.7,"nearest_helipad_km":1.6,"likely_isolated":true,"priority_score":0}},{"type":"Feature","geometry":{"type":"Point","coordinates":[85.35000000000001,28.19]},"properties":{"place_name":"Shyaphru Bensi","district":"Rasuwa","municipality":"Gosaikunda","damaged_bld":7,"total_bld":8,"damage_pct":87.5,"population":0,"acute_need_score":0,"damaged_bridges_5km":5,"nearest_damaged_bridge_km":1,"nearest_helipad_km":2.7,"likely_isolated":true,"priority_score":0}},{"type":"Feature","geometry":{"type":"Point","coordinates":[85.35000000000001,28.3]},"properties":{"place_name":"Resuo","district":"Rasuwa","municipality":"Gosaikunda","damaged_bld":1,"total_bld":1,"damage_pct":100,"population":0,"acute_need_score":0,"damaged_bridges_5km":2,"nearest_damaged_bridge_km":3.6,"nearest_helipad_km":3.4,"likely_isolated":true,"priority_score":0}},{"type":"Feature","geometry":{"type":"Point","coordinates":[85.24,28.09]},"properties":{"place_name":"Mailung","district":"Rasuwa","municipality":"Uttargaya","damaged_bld":1,"total_bld":1,"damage_pct":100,"population":0,"acute_need_score":0,"damaged_bridges_5km":12,"nearest_damaged_bridge_km":1.2,"nearest_helipad_km":3.8,"likely_isolated":true,"priority_score":0}},{"type":"Feature","geometry":{"type":"Point","coordinates":[85.51,28.29]},"properties":{"place_name":"Resuo","district":"Rasuwa","municipality":"Gosaikunda","damaged_bld":1,"total_bld":1,"damage_pct":100,"population":0,"acute_need_score":0,"damaged_bridges_5km":0,"nearest_damaged_bridge_km":null,"nearest_helipad_km":13,"likely_isolated":false,"priority_score":0}},{"type":"Feature","geometry":{"type":"Point","coordinates":[85.36,28.29]},"properties":{"place_name":"Resuo","district":"Rasuwa","municipality":"Gosaikunda","damaged_bld":1,"total_bld":1,"damage_pct":100,"population":0,"acute_need_score":0,"damaged_bridges_5km":2,"nearest_damaged_bridge_km":2.2,"nearest_helipad_km":1.9,"likely_isolated":true,"priority_score":0}},{"type":"Feature","geometry":{"type":"Point","coordinates":[85.2,28.04]},"properties":{"place_name":"Simle","district":"Rasuwa","municipality":"Uttargaya","damaged_bld":3,"total_bld":9,"damage_pct":33.3,"population":0,"acute_need_score":0,"damaged_bridges_5km":7,"nearest_damaged_bridge_km":0.7,"nearest_helipad_km":3.8,"likely_isolated":true,"priority_score":0}},{"type":"Feature","geometry":{"type":"Point","coordinates":[85.4,28.29]},"properties":{"place_name":"Resuo","district":"Rasuwa","municipality":"Gosaikunda","damaged_bld":1,"total_bld":1,"damage_pct":100,"population":0,"acute_need_score":0,"damaged_bridges_5km":2,"nearest_damaged_bridge_km":2.5,"nearest_helipad_km":2.5,"likely_isolated":true,"priority_score":0}},{"type":"Feature","geometry":{"type":"Point","coordinates":[85.48,28.330000000000002]},"properties":{"place_name":"Resuo","district":"Rasuwa","municipality":"Gosaikunda","damaged_bld":1,"total_bld":1,"damage_pct":100,"population":0.129,"acute_need_score":0,"damaged_bridges_5km":0,"nearest_damaged_bridge_km":null,"nearest_helipad_km":11.4,"likely_isolated":false,"priority_score":0}},{"type":"Feature","geometry":{"type":"Point","coordinates":[85.49,28.32]},"properties":{"place_name":"Resuo","district":"Rasuwa","municipality":"Gosaikunda","damaged_bld":1,"total_bld":1,"damage_pct":100,"population":0,"acute_need_score":0,"damaged_bridges_5km":0,"nearest_damaged_bridge_km":null,"nearest_helipad_km":11.9,"likely_isolated":false,"priority_score":0}}]}
