{"type":"FeatureCollection","features":[{"type":"Feature","geometry":{"type":"Point","coordinates":[84.8334747,27.8111146]},"properties":{"category":"health","name":"Highway Community Hospital","status":"Standing","subtype":"hospital","district":"Dhading","municipality":"Benighat Rorang"}},{"type":"Feature","geometry":{"type":"Point","coordinates":[84.7800149,27.8106241]},"properties":{"category":"health","name":"Benighat Health Cllinic","status":"Standing","subtype":"clinic","district":"Dhading","municipality":"Benighat Rorang"}},{"type":"Feature","geometry":{"type":"Point","coordinates":[84.8278453,27.8136943]},"properties":{"category":"health","name":"Highway Healthcare Pharma","status":"Standing","subtype":"pharmacy","district":"Dhading","municipality":"Benighat Rorang"}},{"type":"Feature","geometry":{"type":"Point","coordinates":[84.7043051,27.8056745]},"properties":{"category":"health","name":"Bihani Pharmacy","status":"Standing","subtype":"pharmacy","district":"Dhading","municipality":"Benighat Rorang"}},{"type":"Feature","geometry":{"type":"Point","coordinates":[84.88003044999999,27.8064557]},"properties":{"category":"health","name":"Health facility","status":"Standing","subtype":"hospital","district":"Dhading","municipality":"Gajuri"}},{"type":"Feature","geometry":{"type":"Point","coordinates":[85.2794174,28.1146281]},"properties":{"category":"education","name":"Shree Haku Besi Ni.Ma.V","status":"Standing","subtype":"school","district":"Rasuwa","municipality":"Aamachhodingmo"}},{"type":"Feature","geometry":{"type":"Point","coordinates":[85.3388638,28.1643332]},"properties":{"category":"education","name":"Gosaikunda English Reading School","status":"Destroyed","subtype":"school","district":"Rasuwa","municipality":"Gosaikunda"}},{"type":"Feature","geometry":{"type":"Point","coordinates":[85.1693966,27.964749]},"properties":{"category":"education","name":"Shree Pioneer Secondary Boarding School","status":"Standing","subtype":"school","district":"Nuwakot","municipality":"Bidur"}},{"type":"Feature","geometry":{"type":"Point","coordinates":[85.1713652,27.9618698]},"properties":{"category":"education","name":"Shree Chetana Primary School","status":"Destroyed","subtype":"school","district":"Nuwakot","municipality":"Bidur"}},{"type":"Feature","geometry":{"type":"Point","coordinates":[85.2081762,28.0563867]},"properties":{"category":"education","name":"Shree Chipleti Pra Vi","status":"Standing","subtype":"school","district":"Rasuwa","municipality":"Kalika"}},{"type":"Feature","geometry":{"type":"Point","coordinates":[85.1907891,28.0297555]},"properties":{"category":"education","name":"Shree Simle Pra Vi","status":"Standing","subtype":"school","district":"Rasuwa","municipality":"Uttargaya"}},{"type":"Feature","geometry":{"type":"Point","coordinates":[85.1584666,27.9475845]},"properties":{"category":"education","name":"Shree Sulakshyana Ma Vi","status":"Standing","subtype":"school","district":"Nuwakot","municipality":"Bidur"}},{"type":"Feature","geometry":{"type":"Point","coordinates":[84.5911485,27.8816026]},"properties":{"category":"education","name":"Shri Shilingtar Pra V","status":"Standing","subtype":"school","district":"Gorkha","municipality":"Shahid Lakhan"}},{"type":"Feature","geometry":{"type":"Point","coordinates":[84.9442606,27.8147716]},"properties":{"category":"education","name":"Shri Belinitar Pra Vi","status":"Standing","subtype":"school","district":"Dhading","municipality":"Galchhi"}},{"type":"Feature","geometry":{"type":"Point","coordinates":[84.8773408,27.8070838]},"properties":{"category":"education","name":"Shri Aadarsha Bahumukhi Campus","status":"Standing","subtype":"school","district":"Dhading","municipality":"Siddhalek"}},{"type":"Feature","geometry":{"type":"Point","coordinates":[84.8793261,27.807585]},"properties":{"category":"education","name":"Shri Adarsha Uchha Ma V","status":"Standing","subtype":"school","district":"Dhading","municipality":"Gajuri"}},{"type":"Feature","geometry":{"type":"Point","coordinates":[85.1840744,27.9785677]},"properties":{"category":"education","name":"Shree Neelkanta Higher Sec School","status":"Standing","subtype":"school","district":"Nuwakot","municipality":"Kispang"}},{"type":"Feature","geometry":{"type":"Point","coordinates":[85.1367303,27.8863114]},"properties":{"category":"education","name":"Shri Mahalaxmi Pra.Vi.","status":"Standing","subtype":"school","district":"Nuwakot","municipality":"Bidur"}},{"type":"Feature","geometry":{"type":"Point","coordinates":[85.1298955,27.8864849]},"properties":{"category":"education","name":"Shree Mandredhunga Pra V","status":"Standing","subtype":"school","district":"Nuwakot","municipality":"Bidur"}},{"type":"Feature","geometry":{"type":"Point","coordinates":[84.7816236,27.8121655]},"properties":{"category":"education","name":"Shri Chandrodaya Ma Vi","status":"Standing","subtype":"school","district":"Dhading","municipality":"Siddhalek"}},{"type":"Feature","geometry":{"type":"Point","coordinates":[85.1451878,27.9178928]},"properties":{"category":"education","name":"Dibyaratna boarding school","status":"Standing","subtype":"school","district":"Nuwakot","municipality":"Bidur"}},{"type":"Feature","geometry":{"type":"Point","coordinates":[84.6044235,27.8703213]},"properties":{"category":"education","name":"Shree Bakulahari Rastriya Adharbhut School, Lewatar","status":"Standing","subtype":"school","district":"Chitawan","municipality":"Ichchha Kamana"}},{"type":"Feature","geometry":{"type":"Point","coordinates":[84.6409513,27.8622423]},"properties":{"category":"education","name":"Shri Janajagriti Primary School","status":"Standing","subtype":"school","district":"Chitawan","municipality":"Ichchha Kamana"}},{"type":"Feature","geometry":{"type":"Point","coordinates":[84.6251566,27.8706443]},"properties":{"category":"education","name":"Kurin Boarding School","status":"Standing","subtype":"school","district":"Chitawan","municipality":"Ichchha Kamana"}},{"type":"Feature","geometry":{"type":"Point","coordinates":[84.6330946,27.8716283]},"properties":{"category":"education","name":"Shri Rainas Pra V","status":"Standing","subtype":"school","district":"Gorkha","municipality":"Gandaki"}},{"type":"Feature","geometry":{"type":"Point","coordinates":[84.6614838,27.8424892]},"properties":{"category":"education","name":"Shree Rastriya Aardharbhut School, Fishling","status":"Standing","subtype":"school","district":"Chitawan","municipality":"Ichchha Kamana"}},{"type":"Feature","geometry":{"type":"Point","coordinates":[84.5615298,27.8576882]},"properties":{"category":"education","name":"Green Field Secondary English School, Muglin","status":"Standing","subtype":"school","district":"Chitawan","municipality":"Ichchha Kamana"}},{"type":"Feature","geometry":{"type":"Point","coordinates":[84.7396508,27.8013069]},"properties":{"category":"education","name":"Rising Star English Boarding School","status":"Standing","subtype":"school","district":"Gorkha","municipality":"Gandaki"}},{"type":"Feature","geometry":{"type":"Point","coordinates":[84.7486773,27.8035007]},"properties":{"category":"education","name":"Shri Buddhi Bikash Pra V","status":"Standing","subtype":"school","district":"Dhading","municipality":"Benighat Rorang"}},{"type":"Feature","geometry":{"type":"Point","coordinates":[84.7048938,27.805525]},"properties":{"category":"education","name":"Shree Shankha Higher Secondary School","status":"Standing","subtype":"school","district":"Dhading","municipality":"Benighat Rorang"}},{"type":"Feature","geometry":{"type":"Point","coordinates":[85.014091,27.8105267]},"properties":{"category":"education","name":"Shree Mahadev Uchha Ma V","status":"Standing","subtype":"school","district":"Dhading","municipality":"Galchhi"}},{"type":"Feature","geometry":{"type":"Point","coordinates":[85.0192998,27.8390414]},"properties":{"category":"education","name":"Shree Pimaltar Uchcha Ma.Vi.","status":"Standing","subtype":"school","district":"Nuwakot","municipality":"Belkotgadhi"}},{"type":"Feature","geometry":{"type":"Point","coordinates":[85.0873968,27.8625042]},"properties":{"category":"education","name":"Shri Seti Devi Pra Bi","status":"Standing","subtype":"school","district":"Nuwakot","municipality":"Bidur"}},{"type":"Feature","geometry":{"type":"Point","coordinates":[85.0897009,27.8536836]},"properties":{"category":"education","name":"Shri Janasewa Lower Secondary School","status":"Standing","subtype":"school","district":"Nuwakot","municipality":"Belkotgadhi"}},{"type":"Feature","geometry":{"type":"Point","coordinates":[85.0806347,27.8576473]},"properties":{"category":"education","name":"Shri Chandi Ni.Ma.Vi.","status":"Standing","subtype":"school","district":"Nuwakot","municipality":"Bidur"}},{"type":"Feature","geometry":{"type":"Point","coordinates":[85.0423178,27.8514602]},"properties":{"category":"education","name":"Shri Sila Devi Ma. Vi","status":"Standing","subtype":"school","district":"Nuwakot","municipality":"Belkotgadhi"}},{"type":"Feature","geometry":{"type":"Point","coordinates":[85.0276701,27.8491356]},"properties":{"category":"education","name":"Shri Ganeshman Singh Memorial Primary School","status":"Standing","subtype":"school","district":"Nuwakot","municipality":"Belkotgadhi"}},{"type":"Feature","geometry":{"type":"Point","coordinates":[85.14998779999999,27.92374005]},"properties":{"category":"education","name":"Tribhuwan Trishuli Higher School","status":"Destroyed","subtype":"school","district":"Nuwakot","municipality":"Bidur"}},{"type":"Feature","geometry":{"type":"Point","coordinates":[85.34132445,28.16529335]},"properties":{"category":"education","name":"Gosaikunda English School","status":"Destroyed","subtype":null,"district":"Rasuwa","municipality":"Gosaikunda"}},{"type":"Feature","geometry":{"type":"Point","coordinates":[85.33878265000001,28.1642884]},"properties":{"category":"education","name":"Education facility","status":"Destroyed","subtype":null,"district":"Rasuwa","municipality":"Gosaikunda"}},{"type":"Feature","geometry":{"type":"Point","coordinates":[85.18076070000001,27.9678458]},"properties":{"category":"education","name":"Uttargaya Secondary School","status":"Destroyed","subtype":null,"district":"Nuwakot","municipality":"Bidur"}},{"type":"Feature","geometry":{"type":"Point","coordinates":[85.14022700000001,27.912504050000003]},"properties":{"category":"education","name":"Trishuli Medical Institute","status":"Standing","subtype":null,"district":"Nuwakot","municipality":"Bidur"}},{"type":"Feature","geometry":{"type":"Point","coordinates":[85.14939465,27.925426]},"properties":{"category":"education","name":"Tribhuwan Trisuli Multiple Campus","status":"Standing","subtype":"college","district":"Nuwakot","municipality":"Bidur"}},{"type":"Feature","geometry":{"type":"Point","coordinates":[85.1077047,27.8645994]},"properties":{"category":"education","name":"Samudayik Bidhya Mandir","status":"Standing","subtype":null,"district":"Nuwakot","municipality":"Bidur"}},{"type":"Feature","geometry":{"type":"Point","coordinates":[84.55938555,27.8565373]},"properties":{"category":"education","name":"Marsyangdi Shikshya Sadan English Boarding School","status":"Standing","subtype":"school","district":"Chitawan","municipality":"Ichchha Kamana"}},{"type":"Feature","geometry":{"type":"Point","coordinates":[85.33921375,28.164950949999998]},"properties":{"category":"education","name":"Education facility","status":"Standing","subtype":null,"district":"Rasuwa","municipality":"Gosaikunda"}},{"type":"Feature","geometry":{"type":"Point","coordinates":[84.9402208,27.808684749999998]},"properties":{"category":"education","name":"shree satyawati higher secondary school","status":"Standing","subtype":"school","district":"Dhading","municipality":"Siddhalek"}},{"type":"Feature","geometry":{"type":"Point","coordinates":[84.96731985,27.812960500000003]},"properties":{"category":"education","name":"Shree Rakta Bachchhala Ni Ma Vi","status":"Standing","subtype":"school","district":"Dhading","municipality":"Galchhi"}},{"type":"Feature","geometry":{"type":"Point","coordinates":[84.7747509,27.8097682]},"properties":{"category":"education","name":"Madrassa Islamiyafaijul Ulum","status":"Standing","subtype":"school","district":"Dhading","municipality":"Benighat Rorang"}},{"type":"Feature","geometry":{"type":"Point","coordinates":[84.87939069999999,27.80768585]},"properties":{"category":"education","name":"Shree Aadarsha HS School","status":"Standing","subtype":"school","district":"Dhading","municipality":"Gajuri"}},{"type":"Feature","geometry":{"type":"Point","coordinates":[84.8359122,27.80708865]},"properties":{"category":"education","name":"Shree Bhadrakali Gurukul Saskriti Bidhyalaya","status":"Standing","subtype":"school","district":"Dhading","municipality":"Siddhalek"}},{"type":"Feature","geometry":{"type":"Point","coordinates":[84.86720550000001,27.800446]},"properties":{"category":"education","name":"Shree Bageshwori Pra V","status":"Standing","subtype":"school","district":"Dhading","municipality":"Siddhalek"}},{"type":"Feature","geometry":{"type":"Point","coordinates":[85.09507124999999,27.86331515]},"properties":{"category":"education","name":"Shri Chhetrapal Lower Secondary School","status":"Standing","subtype":"school","district":"Nuwakot","municipality":"Bidur"}},{"type":"Feature","geometry":{"type":"Point","coordinates":[85.11335345,27.8635974]},"properties":{"category":"education","name":"Shri Sahid J P Jang Shah Sanskrit Ma V","status":"Standing","subtype":"school","district":"Nuwakot","municipality":"Bidur"}},{"type":"Feature","geometry":{"type":"Point","coordinates":[85.10769365,27.86234865]},"properties":{"category":"education","name":"Shri Rana Bhuwaneswari Uccha Madhyamik Prabidhik Bidyalaya","status":"Standing","subtype":"school","district":"Nuwakot","municipality":"Bidur"}},{"type":"Feature","geometry":{"type":"Point","coordinates":[85.10796835,27.8644492]},"properties":{"category":"education","name":"Samudayik Bidhya Mandir","status":"Standing","subtype":null,"district":"Nuwakot","municipality":"Bidur"}},{"type":"Feature","geometry":{"type":"Point","coordinates":[85.16873179999999,27.96448315]},"properties":{"category":"education","name":"Shree Chandeswori Uchha Ma.Vi.","status":"Standing","subtype":"school","district":"Nuwakot","municipality":"Bidur"}},{"type":"Feature","geometry":{"type":"Point","coordinates":[85.1845926,27.970911100000002]},"properties":{"category":"education","name":"Shree Ramchandra Ni Ma Vi","status":"Standing","subtype":"school","district":"Nuwakot","municipality":"Bidur"}},{"type":"Feature","geometry":{"type":"Point","coordinates":[84.9113795,27.8074479]},"properties":{"category":"education","name":"Shree Mahakali Ma V","status":"Standing","subtype":"school","district":"Dhading","municipality":"Siddhalek"}},{"type":"Feature","geometry":{"type":"Point","coordinates":[84.9110762,27.8071738]},"properties":{"category":"education","name":"Education facility","status":"Standing","subtype":null,"district":"Dhading","municipality":"Siddhalek"}},{"type":"Feature","geometry":{"type":"Point","coordinates":[84.91127689999999,27.80713225]},"properties":{"category":"education","name":"Education facility","status":"Standing","subtype":null,"district":"Dhading","municipality":"Siddhalek"}},{"type":"Feature","geometry":{"type":"Point","coordinates":[85.00376845,27.8055049]},"properties":{"category":"education","name":"Shree Barahi Pra Vi","status":"Standing","subtype":"school","district":"Dhading","municipality":"Galchhi"}},{"type":"Feature","geometry":{"type":"Point","coordinates":[84.591129,27.8778004]},"properties":{"category":"open_space","name":"Kurintar Garden","status":"Standing","subtype":"garden","district":"Gorkha","municipality":"Shahid Lakhan"}},{"type":"Feature","geometry":{"type":"Point","coordinates":[85.31861095,28.1466968]},"properties":{"category":"open_space","name":"Open space","status":"Destroyed","subtype":"farmyard","district":"Rasuwa","municipality":"Gosaikunda"}},{"type":"Feature","geometry":{"type":"Point","coordinates":[85.33891955,28.164033949999997]},"properties":{"category":"open_space","name":"helipat","status":"Destroyed","subtype":"grassland","district":"Rasuwa","municipality":"Gosaikunda"}},{"type":"Feature","geometry":{"type":"Point","coordinates":[85.21645455,28.085987600000003]},"properties":{"category":"open_space","name":"Open space","status":"Standing","subtype":"grassland","district":"Rasuwa","municipality":"Uttargaya"}},{"type":"Feature","geometry":{"type":"Point","coordinates":[85.21685625,28.080175750000002]},"properties":{"category":"open_space","name":"Open space","status":"Standing","subtype":"grassland","district":"Rasuwa","municipality":"Kalika"}},{"type":"Feature","geometry":{"type":"Point","coordinates":[85.21058590000001,28.0774282]},"properties":{"category":"open_space","name":"Open space","status":"Standing","subtype":"grassland","district":"Rasuwa","municipality":"Kalika"}},{"type":"Feature","geometry":{"type":"Point","coordinates":[85.2169119,28.0828995]},"properties":{"category":"open_space","name":"Open space","status":"Standing","subtype":"grassland","district":"Rasuwa","municipality":"Kalika"}},{"type":"Feature","geometry":{"type":"Point","coordinates":[85.21428195,28.08119095]},"properties":{"category":"open_space","name":"Open space","status":"Standing","subtype":"grassland","district":"Rasuwa","municipality":"Kalika"}},{"type":"Feature","geometry":{"type":"Point","coordinates":[85.2344227,28.09757975]},"properties":{"category":"open_space","name":"Open space","status":"Standing","subtype":"grassland","district":"Rasuwa","municipality":"Uttargaya"}},{"type":"Feature","geometry":{"type":"Point","coordinates":[85.2401358,28.096482]},"properties":{"category":"open_space","name":"Open space","status":"Standing","subtype":"grassland","district":"Rasuwa","municipality":"Uttargaya"}},{"type":"Feature","geometry":{"type":"Point","coordinates":[85.24028695,28.0922251]},"properties":{"category":"open_space","name":"Open space","status":"Standing","subtype":"meadow","district":"Rasuwa","municipality":"Gosaikunda"}},{"type":"Feature","geometry":{"type":"Point","coordinates":[85.22954105,28.0863462]},"properties":{"category":"open_space","name":"Open space","status":"Standing","subtype":"grassland","district":"Rasuwa","municipality":"Kalika"}},{"type":"Feature","geometry":{"type":"Point","coordinates":[85.0021952,27.80359105]},"properties":{"category":"open_space","name":"Open space","status":"Standing","subtype":"farmyard","district":"Dhading","municipality":"Galchhi"}},{"type":"Feature","geometry":{"type":"Point","coordinates":[84.5762288,27.868681600000002]},"properties":{"category":"open_space","name":"Open space","status":"Standing","subtype":"sand","district":"Gorkha","municipality":"Shahid Lakhan"}},{"type":"Feature","geometry":{"type":"Point","coordinates":[85.1696149,27.96445135]},"properties":{"category":"open_space","name":"Open space","status":"Standing","subtype":"farmyard","district":"Nuwakot","municipality":"Bidur"}},{"type":"Feature","geometry":{"type":"Point","coordinates":[84.6157369,27.87304545]},"properties":{"category":"open_space","name":"Open space","status":"Standing","subtype":"grassland","district":"Chitawan","municipality":"Ichchha Kamana"}},{"type":"Feature","geometry":{"type":"Point","coordinates":[84.7016772,27.8082251]},"properties":{"category":"open_space","name":"Open space","status":"Standing","subtype":"sand","district":"Dhading","municipality":"Benighat Rorang"}},{"type":"Feature","geometry":{"type":"Point","coordinates":[84.57829325,27.8698986]},"properties":{"category":"open_space","name":"Open space","status":"Standing","subtype":"grassland","district":"Gorkha","municipality":"Shahid Lakhan"}},{"type":"Feature","geometry":{"type":"Point","coordinates":[84.60039815,27.8766878]},"properties":{"category":"open_space","name":"Open space","status":"Standing","subtype":"sand","district":"Gorkha","municipality":"Shahid Lakhan"}},{"type":"Feature","geometry":{"type":"Point","coordinates":[85.15021675,27.9248139]},"properties":{"category":"open_space","name":"Open space","status":"Destroyed","subtype":"pitch","district":"Nuwakot","municipality":"Bidur"}},{"type":"Feature","geometry":{"type":"Point","coordinates":[84.8226729,27.811015349999998]},"properties":{"category":"open_space","name":"Open space","status":"Standing","subtype":"sand","district":"Dhading","municipality":"Benighat Rorang"}},{"type":"Feature","geometry":{"type":"Point","coordinates":[84.87735265,27.806593550000002]},"properties":{"category":"open_space","name":"Open space","status":"Standing","subtype":"farmyard","district":"Dhading","municipality":"Siddhalek"}},{"type":"Feature","geometry":{"type":"Point","coordinates":[84.87322940000001,27.805168700000003]},"properties":{"category":"open_space","name":"Open space","status":"Standing","subtype":"meadow","district":"Dhading","municipality":"Siddhalek"}},{"type":"Feature","geometry":{"type":"Point","coordinates":[84.84441075000001,27.804248049999998]},"properties":{"category":"open_space","name":"Open space","status":"Standing","subtype":"sand","district":"Dhading","municipality":"Siddhalek"}},{"type":"Feature","geometry":{"type":"Point","coordinates":[84.8391781,27.80408225]},"properties":{"category":"open_space","name":"Open space","status":"Standing","subtype":"grassland","district":"Dhading","municipality":"Siddhalek"}},{"type":"Feature","geometry":{"type":"Point","coordinates":[85.16372820000001,27.943352]},"properties":{"category":"open_space","name":"Open space","status":"Standing","subtype":"farmyard","district":"Nuwakot","municipality":"Bidur"}},{"type":"Feature","geometry":{"type":"Point","coordinates":[84.63425555,27.86770525]},"properties":{"category":"open_space","name":"Open space","status":"Standing","subtype":"sand","district":"Gorkha","municipality":"Gandaki"}},{"type":"Feature","geometry":{"type":"Point","coordinates":[84.63198510000001,27.8691144]},"properties":{"category":"open_space","name":"Open space","status":"Standing","subtype":"sand","district":"Gorkha","municipality":"Gandaki"}},{"type":"Feature","geometry":{"type":"Point","coordinates":[84.66705265,27.82399305]},"properties":{"category":"open_space","name":"Open space","status":"Standing","subtype":"sand","district":"Gorkha","municipality":"Gandaki"}},{"type":"Feature","geometry":{"type":"Point","coordinates":[84.6675473,27.8212497]},"properties":{"category":"open_space","name":"Open space","status":"Standing","subtype":"meadow","district":"Gorkha","municipality":"Gandaki"}},{"type":"Feature","geometry":{"type":"Point","coordinates":[84.66773649999999,27.82007145]},"properties":{"category":"open_space","name":"Open space","status":"Standing","subtype":"sand","district":"Gorkha","municipality":"Gandaki"}},{"type":"Feature","geometry":{"type":"Point","coordinates":[84.96687765,27.81384295]},"properties":{"category":"open_space","name":"Mango Garden","status":"Standing","subtype":"garden","district":"Dhading","municipality":"Galchhi"}},{"type":"Feature","geometry":{"type":"Point","coordinates":[84.60607145,27.87366645]},"properties":{"category":"open_space","name":"Open space","status":"Standing","subtype":"sand","district":"Gorkha","municipality":"Shahid Lakhan"}},{"type":"Feature","geometry":{"type":"Point","coordinates":[84.56396565,27.858793849999998]},"properties":{"category":"open_space","name":"Open space","status":"Standing","subtype":"sand","district":"Chitawan","municipality":"Ichchha Kamana"}},{"type":"Feature","geometry":{"type":"Point","coordinates":[84.9921696,27.80272505]},"properties":{"category":"open_space","name":"Open space","status":"Standing","subtype":"sand","district":"Dhading","municipality":"Galchhi"}},{"type":"Feature","geometry":{"type":"Point","coordinates":[84.984988,27.802206599999998]},"properties":{"category":"open_space","name":"Open space","status":"Standing","subtype":"grass","district":"Dhading","municipality":"Galchhi"}},{"type":"Feature","geometry":{"type":"Point","coordinates":[84.98495475,27.8028649]},"properties":{"category":"open_space","name":"Open space","status":"Standing","subtype":"pitch","district":"Dhading","municipality":"Galchhi"}},{"type":"Feature","geometry":{"type":"Point","coordinates":[84.98717260000001,27.8046229]},"properties":{"category":"open_space","name":"Open space","status":"Standing","subtype":"sand","district":"Dhading","municipality":"Galchhi"}},{"type":"Feature","geometry":{"type":"Point","coordinates":[84.99059650000001,27.80461005]},"properties":{"category":"open_space","name":"Open space","status":"Standing","subtype":"sand","district":"Dhading","municipality":"Galchhi"}},{"type":"Feature","geometry":{"type":"Point","coordinates":[84.96585110000001,27.81151315]},"properties":{"category":"open_space","name":"Sand Pocket Area","status":"Standing","subtype":"sand","district":"Dhading","municipality":"Galchhi"}},{"type":"Feature","geometry":{"type":"Point","coordinates":[85.14098390000001,27.89239355]},"properties":{"category":"open_space","name":"football ground/paila ko pokhari","status":"Standing","subtype":"pitch","district":"Nuwakot","municipality":"Bidur"}},{"type":"Feature","geometry":{"type":"Point","coordinates":[85.11338405000001,27.8635356]},"properties":{"category":"open_space","name":"Open space","status":"Standing","subtype":"pitch","district":"Nuwakot","municipality":"Bidur"}},{"type":"Feature","geometry":{"type":"Point","coordinates":[85.11338015,27.8575547]},"properties":{"category":"open_space","name":"Open space","status":"Standing","subtype":"sand","district":"Nuwakot","municipality":"Belkotgadhi"}},{"type":"Feature","geometry":{"type":"Point","coordinates":[85.1535473,27.92582505]},"properties":{"category":"open_space","name":"Open space","status":"Standing","subtype":"farmyard","district":"Nuwakot","municipality":"Bidur"}},{"type":"Feature","geometry":{"type":"Point","coordinates":[85.15768465,27.944734699999998]},"properties":{"category":"open_space","name":"Open space","status":"Standing","subtype":"farmyard","district":"Nuwakot","municipality":"Bidur"}},{"type":"Feature","geometry":{"type":"Point","coordinates":[85.18410585,27.9786504]},"properties":{"category":"open_space","name":"Open space","status":"Standing","subtype":"farmyard","district":"Nuwakot","municipality":"Kispang"}},{"type":"Feature","geometry":{"type":"Point","coordinates":[85.1842451,27.97872625]},"properties":{"category":"open_space","name":"Open space","status":"Standing","subtype":"farmyard","district":"Nuwakot","municipality":"Kispang"}},{"type":"Feature","geometry":{"type":"Point","coordinates":[85.1845012,27.978727749999997]},"properties":{"category":"open_space","name":"Open space","status":"Standing","subtype":"farmyard","district":"Nuwakot","municipality":"Kispang"}},{"type":"Feature","geometry":{"type":"Point","coordinates":[85.14989614999999,27.9207211]},"properties":{"category":"open_space","name":"Open space","status":"Standing","subtype":"meadow","district":"Nuwakot","municipality":"Bidur"}},{"type":"Feature","geometry":{"type":"Point","coordinates":[84.555155,27.85927315]},"properties":{"category":"open_space","name":"Open space","status":"Standing","subtype":"sand","district":"Gorkha","municipality":"Shahid Lakhan"}},{"type":"Feature","geometry":{"type":"Point","coordinates":[84.5573641,27.84809085]},"properties":{"category":"open_space","name":"Open space","status":"Standing","subtype":"sand","district":"Tanahu","municipality":"Aanbu Khaireni"}},{"type":"Feature","geometry":{"type":"Point","coordinates":[84.62464815,27.877923850000002]},"properties":{"category":"open_space","name":"Open space","status":"Standing","subtype":"meadow","district":"Chitawan","municipality":"Ichchha Kamana"}},{"type":"Feature","geometry":{"type":"Point","coordinates":[84.60456585,27.8722169]},"properties":{"category":"open_space","name":"Open space","status":"Standing","subtype":"sand","district":"Gorkha","municipality":"Shahid Lakhan"}},{"type":"Feature","geometry":{"type":"Point","coordinates":[84.6480645,27.86015405]},"properties":{"category":"open_space","name":"Open space","status":"Standing","subtype":"sand","district":"Gorkha","municipality":"Gandaki"}},{"type":"Feature","geometry":{"type":"Point","coordinates":[84.8216472,27.813341899999998]},"properties":{"category":"open_space","name":"Open space","status":"Standing","subtype":"sand","district":"Dhading","municipality":"Benighat Rorang"}},{"type":"Feature","geometry":{"type":"Point","coordinates":[84.74274299999999,27.804829050000002]},"properties":{"category":"open_space","name":"Open space","status":"Standing","subtype":"sand","district":"Gorkha","municipality":"Gandaki"}},{"type":"Feature","geometry":{"type":"Point","coordinates":[85.12765485,27.878789349999998]},"properties":{"category":"open_space","name":"Open space","status":"Standing","subtype":"meadow","district":"Nuwakot","municipality":"Bidur"}},{"type":"Feature","geometry":{"type":"Point","coordinates":[85.0445672,27.85595635]},"properties":{"category":"open_space","name":"Open space","status":"Standing","subtype":"sand","district":"Nuwakot","municipality":"Belkotgadhi"}},{"type":"Feature","geometry":{"type":"Point","coordinates":[85.04034494999999,27.85478105]},"properties":{"category":"open_space","name":"Open space","status":"Standing","subtype":"sand","district":"Nuwakot","municipality":"Tarakeshwor"}},{"type":"Feature","geometry":{"type":"Point","coordinates":[85.0325251,27.851110300000002]},"properties":{"category":"open_space","name":"Open space","status":"Standing","subtype":"farmyard","district":"Nuwakot","municipality":"Belkotgadhi"}},{"type":"Feature","geometry":{"type":"Point","coordinates":[85.01606000000001,27.8196803]},"properties":{"category":"open_space","name":"Open space","status":"Standing","subtype":"sand","district":"Nuwakot","municipality":"Belkotgadhi"}},{"type":"Feature","geometry":{"type":"Point","coordinates":[85.01212455,27.807348949999998]},"properties":{"category":"open_space","name":"Open space","status":"Standing","subtype":"sand","district":"Dhading","municipality":"Galchhi"}},{"type":"Feature","geometry":{"type":"Point","coordinates":[85.0017624,27.80339875]},"properties":{"category":"open_space","name":"Open space","status":"Standing","subtype":"farmyard","district":"Dhading","municipality":"Galchhi"}},{"type":"Feature","geometry":{"type":"Point","coordinates":[85.00420349999999,27.8084426]},"properties":{"category":"open_space","name":"Open space","status":"Standing","subtype":"meadow","district":"Dhading","municipality":"Galchhi"}},{"type":"Feature","geometry":{"type":"Point","coordinates":[85.0066029,27.8058864]},"properties":{"category":"open_space","name":"Open space","status":"Standing","subtype":"meadow","district":"Dhading","municipality":"Galchhi"}},{"type":"Feature","geometry":{"type":"Point","coordinates":[85.02522385,27.8477088]},"properties":{"category":"open_space","name":"Open space","status":"Standing","subtype":"sand","district":"Nuwakot","municipality":"Belkotgadhi"}},{"type":"Feature","geometry":{"type":"Point","coordinates":[85.02074635,27.84449925]},"properties":{"category":"open_space","name":"Open space","status":"Standing","subtype":"sand","district":"Nuwakot","municipality":"Belkotgadhi"}},{"type":"Feature","geometry":{"type":"Point","coordinates":[85.34583333000006,28.17083333000005]},"properties":{"category":"hydropower","name":"Bhotekoshi Khola Hydropower Project","status":"Survey","subtype":"Bhote Koshi","district":"Rasuwa","municipality":"Gosaikunda"}},{"type":"Feature","geometry":{"type":"Point","coordinates":[85.13888889000003,27.902222220000056]},"properties":{"category":"hydropower","name":"Devighat","status":"Operation","subtype":"Trishuli","district":"Nuwakot","municipality":"Bidur"}},{"type":"Feature","geometry":{"type":"Point","coordinates":[85.35416667000004,28.204722220000065]},"properties":{"category":"hydropower","name":"Rasuwa Bhotekoshi","status":"Under Construction","subtype":"Bhote koshi","district":"Rasuwa","municipality":"Gosaikunda"}},{"type":"Feature","geometry":{"type":"Point","coordinates":[85.37013889000008,28.251111110000068]},"properties":{"category":"hydropower","name":"Rasuwagadhi","status":"Under Construction","subtype":"Bhote koshi","district":"Rasuwa","municipality":"Gosaikunda"}},{"type":"Feature","geometry":{"type":"Point","coordinates":[85.16611111000003,27.946388890000037]},"properties":{"category":"hydropower","name":"Trishuli","status":"Operation","subtype":"Trishuli","district":"Nuwakot","municipality":"Bidur"}},{"type":"Feature","geometry":{"type":"Point","coordinates":[85.02291667000009,27.827777780000076]},"properties":{"category":"hydropower","name":"Trishuli Galchhi","status":"Under Construction","subtype":"Trishuli","district":"Nuwakot","municipality":"Belkotgadhi"}},{"type":"Feature","geometry":{"type":"Point","coordinates":[85.19916667000007,28.046527780000076]},"properties":{"category":"hydropower","name":"Upper Trishuli 3A","status":"Under Construction","subtype":"Trishuli","district":"Rasuwa","municipality":"Uttargaya"}},{"type":"Feature","geometry":{"type":"Point","coordinates":[85.18500000000006,28.00458333000006]},"properties":{"category":"hydropower","name":"Upper Trishuli 3B","status":"Under Construction","subtype":"Trishuli","district":"Rasuwa","municipality":"Uttargaya"}},{"type":"Feature","geometry":{"type":"Point","coordinates":[85.25597222000005,28.10125000000005]},"properties":{"category":"hydropower","name":"Upper Trishuli-1","status":"Under Construction","subtype":"Trishuli","district":"Rasuwa","municipality":"Aamachhodingmo"}},{"type":"Feature","geometry":{"type":"Point","coordinates":[85.20902778000004,28.072500000000048]},"properties":{"category":"hydropower","name":"Upper Trishuli-I Cascade HEP","status":"Survey","subtype":"Trishuli Ganga","district":"Rasuwa","municipality":"Kalika"}}]}
